{"type":"FeatureCollection","features":[{"type":"Feature","properties":{"name":"Hongze Hu","scalerank":3},"geometry":{"type":"Polygon","coordinates":[[[118.6521,33.1906],[118.6142,33.1726],[118.5786,33.1838],[118.5582,33.1529],[118.5653,33.1187],[118.5444,33.0875],[118.5444,33.0466],[118.5247,33.0566],[118.4811,32.9854],[118.3336,32.938],[118.3192,32.9368],[118.3154,32.9559],[118.2948,32.9504],[118.2883,32.933],[118.2606,32.9333],[118.25,32.8821],[118.2294,32.8871],[118.223,32.9094],[118.1747,32.8617],[118.1609,32.9062],[118.1912,32.9342],[118.1888,32.9504],[118.2291,32.9577],[118.135,33.0295],[118.1161,32.9718],[118.082,32.9609],[118.0031,32.8959],[117.9857,32.8603],[117.9828,32.9033],[117.9754,32.8959],[118.1002,33.0366],[118.1267,33.0466],[118.1726,33.0342],[118.2427,32.9724],[118.2913,32.971],[118.2551,32.9886],[118.2309,33.0263],[118.1985,33.1546],[118.1576,33.1632],[118.0622,33.1358],[117.9074,33.1361],[117.9074,33.0504],[117.8441,33.0213],[117.8073,33.0236],[117.7573,33.0601],[117.8771,33.0504],[117.8939,33.0875],[117.878,33.1476],[117.9204,33.1932],[118.0511,33.1838],[118.1164,33.2241],[118.1732,33.2268],[118.2106,33.2062],[118.2365,33.1632],[118.2286,33.1176],[118.2601,33.0183],[118.2913,32.9913],[118.3431,32.9795],[118.4152,33.0001],[118.4564,33.0601],[118.4031,33.0313],[118.3389,33.0325],[118.457,33.0813],[118.4696,33.1061],[118.4426,33.1014],[118.4852,33.1376],[118.4829,33.1661],[118.3937,33.1567],[118.2327,33.2079],[118.1979,33.4051],[118.2091,33.4234],[118.2551,33.2691],[118.3048,33.2385],[118.3307,33.2759],[118.409,33.3274],[118.3966,33.3895],[118.4117,33.4034],[118.4564,33.3966],[118.4767,33.4446],[118.4947,33.434],[118.49,33.3731],[118.5103,33.3689],[118.5373,33.3916],[118.5568,33.3878],[118.575,33.3578],[118.6189,33.3539],[118.6339,33.3689],[118.5859,33.4034],[118.5421,33.4125],[118.4699,33.5538],[118.4691,33.6395],[118.5647,33.6583],[118.5786,33.6227],[118.5582,33.6021],[118.5833,33.5962],[118.5786,33.5673],[118.6068,33.5779],[118.6156,33.5632],[118.6065,33.5129],[118.6221,33.5079],[118.6065,33.4514],[118.633,33.4776],[118.7817,33.4461],[118.8809,33.3589],[118.8361,33.3068],[118.8158,33.235],[118.7884,33.215],[118.7443,33.1296],[118.7437,33.0875],[118.6857,33.0799],[118.6884,33.0601],[118.668,33.0766],[118.6692,33.1326],[118.6957,33.1496],[118.6521,33.1906]]]}},{"type":"Feature","properties":{"name":"Tonl\u00e9 Sap","scalerank":3},"geometry":{"type":"Polygon","coordinates":[[[104.613,12.4161],[104.6204,12.379],[104.4962,12.5109],[104.4417,12.523],[104.4076,12.5094],[104.2124,12.5806],[104.1485,12.6631],[104.1512,12.6928],[104.1332,12.6937],[104.14,12.742],[104.117,12.7605],[104.127,12.7973],[104.1111,12.7894],[104.0923,12.8247],[104.0788,12.8041],[104.0234,12.7832],[104.0099,12.8108],[103.9863,12.8017],[103.9557,12.845],[103.9407,12.8341],[103.9239,12.8441],[103.8595,12.9065],[103.8527,12.865],[103.8459,12.9133],[103.81,12.9192],[103.7773,12.9995],[103.7497,13.0095],[103.7776,13.0369],[103.727,13.0784],[103.7143,13.1099],[103.6887,13.2285],[103.7046,13.2609],[103.8259,13.2491],[103.8397,13.2285],[103.9024,13.2247],[104.0114,13.1797],[104.0738,13.1087],[104.127,12.9618],[104.1694,12.9024],[104.2395,12.7455],[104.2778,12.7358],[104.3914,12.7567],[104.4558,12.729],[104.4765,12.6634],[104.4491,12.6054],[104.4903,12.5606],[104.4417,12.5571],[104.447,12.5415],[104.4626,12.5297],[104.4921,12.5436],[104.5003,12.5291],[104.525,12.5645],[104.5212,12.5268],[104.5792,12.4997],[104.5939,12.4661],[104.525,12.4956],[104.5336,12.4809],[104.613,12.4161]]]}},{"type":"Feature","properties":{"name":"Hulun Nuur","scalerank":4},"geometry":{"type":"Polygon","coordinates":[[[117.2919,48.5979],[117.0694,48.5437],[117.0511,48.5681],[117.1076,48.5749],[117.1144,48.6073],[117.1335,48.6158],[117.1262,48.6297],[117.1535,48.6291],[117.1706,48.657],[117.0785,48.6779],[117.1091,48.7318],[117.0367,48.7674],[117.0305,48.788],[116.976,48.801],[116.9952,48.8122],[116.9775,48.8557],[117.0052,48.8955],[117.0579,48.8966],[117.1262,48.9237],[117.1123,48.9376],[117.1262,48.9517],[117.309,49.0382],[117.3393,49.0962],[117.5704,49.3255],[117.6357,49.3326],[117.7011,49.3776],[117.7025,49.3311],[117.7225,49.3149],[117.6816,49.2802],[117.6669,49.2219],[117.7005,49.2054],[117.7296,49.1572],[117.739,49.1839],[117.7879,49.1725],[117.7908,49.1142],[117.8791,49.1001],[118.0481,49.1265],[118.0534,49.068],[118.026,49.0359],[117.9834,49.0235],[117.8368,49.025],[117.8262,49.0412],[117.8447,49.06],[117.7696,49.0915],[117.709,49.0276],[117.7276,49.0268],[117.7437,48.9723],[117.6672,48.9723],[117.5094,48.8198],[117.3043,48.7259],[117.3469,48.7156],[117.3481,48.6982],[117.2919,48.5979]]]}},{"type":"Feature","properties":{"name":"Tai Hu","scalerank":4},"geometry":{"type":"Polygon","coordinates":[[[120.577,31.1727],[120.6014,31.0864],[120.5897,31.077],[120.3892,30.9599],[120.3041,30.9301],[120.2132,30.9204],[120.1284,30.9431],[119.9426,31.0864],[119.8982,31.248],[119.9844,31.397],[120.0186,31.4291],[120.0145,31.4609],[120.0916,31.4688],[120.1054,31.4906],[120.2034,31.5459],[120.1961,31.5315],[120.2291,31.5383],[120.2376,31.5186],[120.2785,31.5186],[120.2644,31.4715],[120.2167,31.5186],[120.2087,31.4129],[120.2241,31.4023],[120.3368,31.4606],[120.4021,31.4435],[120.3801,31.369],[120.3265,31.3614],[120.2923,31.3063],[120.3574,31.3296],[120.3297,31.2816],[120.3877,31.2442],[120.3539,31.2236],[120.4704,31.2168],[120.4746,31.1927],[120.4278,31.1438],[120.4348,31.1091],[120.3845,31.11],[120.3309,31.0579],[120.3318,31.0385],[120.4021,31.0046],[120.4625,31.1115],[120.5461,31.107],[120.5526,31.1538],[120.577,31.1727]]]}},{"type":"Feature","properties":{"name":"Nam Co","scalerank":4},"geometry":{"type":"Polygon","coordinates":[[[90.3841,30.5233],[90.3255,30.5113],[90.3376,30.5398],[90.2981,30.5831],[90.3152,30.6143],[90.2775,30.6278],[90.3043,30.7135],[90.2719,30.8356],[90.2849,30.8698],[90.3146,30.8874],[90.4006,30.8742],[90.4282,30.8833],[90.4968,30.8194],[90.5828,30.8127],[90.6234,30.8401],[90.6817,30.8401],[90.6581,30.8657],[90.7055,30.9122],[90.7788,30.888],[90.8044,30.9016],[90.8871,30.8607],[90.8842,30.9189],[90.9292,30.8948],[90.9389,30.9322],[90.9678,30.936],[90.9981,30.9263],[91.0255,30.8863],[91.0305,30.8621],[90.9952,30.788],[90.8462,30.7847],[90.8642,30.7144],[90.7988,30.6578],[90.523,30.5586],[90.4986,30.5663],[90.3994,30.5422],[90.3841,30.5233]]]}},{"type":"Feature","properties":{"name":null,"scalerank":4},"geometry":{"type":"Polygon","coordinates":[[[114.436,30.0671],[114.4369,30.0671],[114.4336,30.0662],[114.436,30.0671]]]}},{"type":"Feature","properties":{"name":null,"scalerank":4},"geometry":{"type":"Polygon","coordinates":[[[114.4369,30.0671],[114.441,30.0685],[114.4401,30.0673],[114.4369,30.0671]]]}},{"type":"Feature","properties":{"name":null,"scalerank":4},"geometry":{"type":"Polygon","coordinates":[[[81.3742,46.0964],[81.3756,46.0872],[81.3689,46.1017],[81.3742,46.0964]]]}},{"type":"Feature","properties":{"name":"Bosten Hu","scalerank":4},"geometry":{"type":"Polygon","coordinates":[[[87.4169,41.8393],[87.31,41.8661],[87.2965,41.8934],[87.2815,41.8843],[87.134,41.922],[86.8443,41.8658],[86.7534,41.8254],[86.6801,41.8454],[86.7342,41.859],[86.7213,41.8896],[86.7631,41.9726],[86.8443,42.0026],[86.8508,42.0341],[86.8031,42.1198],[86.8167,42.1336],[87.0739,42.0609],[87.3374,42.0235],[87.3545,42.0029],[87.3512,41.9137],[87.3774,41.9132],[87.4272,41.8587],[87.4337,41.849],[87.4169,41.8393]]]}},{"type":"Feature","properties":{"name":null,"scalerank":4},"geometry":{"type":"Polygon","coordinates":[[[84.213,47.7321],[84.2207,47.7292],[84.2266,47.7248],[84.213,47.7321]]]}},{"type":"Feature","properties":{"name":"Poyang Hu","scalerank":4},"geometry":{"type":"Polygon","coordinates":[[[116.6884,29.1681],[116.7152,29.1372],[116.7076,29.083],[116.6884,29.0786],[116.6843,29.1277],[116.6567,29.1272],[116.6334,29.0724],[116.619,29.0786],[116.6275,29.1036],[116.6154,29.1357],[116.6072,29.1174],[116.5645,29.1407],[116.5371,29.1195],[116.5068,29.1607],[116.4762,29.1522],[116.4927,29.1121],[116.5371,29.0786],[116.4856,29.0462],[116.4612,29.0512],[116.4597,29.0365],[116.5221,28.9405],[116.5092,28.8943],[116.558,28.8867],[116.531,28.8563],[116.5433,28.8254],[116.5265,28.7824],[116.5165,28.7769],[116.5233,28.7907],[116.5092,28.7981],[116.4621,28.7942],[116.4232,28.8502],[116.4241,28.8743],[116.4547,28.8943],[116.4262,28.8996],[116.3658,28.8254],[116.4247,28.9299],[116.4206,28.9661],[116.4067,28.9352],[116.3932,28.9385],[116.3932,28.9005],[116.3423,28.8413],[116.3337,28.864],[116.3591,28.8943],[116.3311,28.9114],[116.3591,28.9761],[116.2678,28.9803],[116.2522,29.0315],[116.2066,29.0332],[116.1945,29.0512],[116.1742,29.0388],[116.1556,29.0471],[116.1459,29.0859],[116.1033,29.0783],[116.0935,29.1145],[116.0573,29.1407],[116.0358,29.1813],[116.0841,29.1869],[116.0779,29.2022],[116.1589,29.2031],[116.0058,29.2399],[115.9808,29.2802],[115.9678,29.264],[115.9752,29.1957],[115.9075,29.2169],[115.9278,29.2734],[116.0241,29.3279],[116.03,29.3529],[116.0041,29.4103],[115.9752,29.4286],[116.0609,29.4633],[116.0779,29.4975],[116.0632,29.5095],[116.0982,29.5384],[116.0903,29.5622],[116.1121,29.5796],[116.1262,29.6688],[116.0982,29.6817],[116.1056,29.6956],[116.0609,29.692],[116.1021,29.7303],[116.1736,29.7335],[116.1877,29.7509],[116.2292,29.7438],[116.188,29.7026],[116.2569,29.7097],[116.2696,29.6956],[116.2478,29.6912],[116.2322,29.6514],[116.2178,29.6703],[116.2048,29.665],[116.2057,29.6134],[116.1877,29.5984],[116.2157,29.5522],[116.1671,29.5858],[116.1521,29.5543],[116.1456,29.5337],[116.1707,29.5007],[116.1459,29.4695],[116.1459,29.4348],[116.1156,29.4439],[116.0617,29.3838],[116.0815,29.3665],[116.1506,29.3735],[116.208,29.415],[116.2219,29.3462],[116.2142,29.3582],[116.1877,29.3394],[116.133,29.3394],[116.1236,29.3123],[116.1662,29.2737],[116.1262,29.264],[116.1242,29.2473],[116.1969,29.2422],[116.2292,29.264],[116.2551,29.2231],[116.2961,29.2096],[116.3105,29.2163],[116.3037,29.2369],[116.3384,29.2431],[116.3591,29.2163],[116.3723,29.2387],[116.3699,29.1963],[116.324,29.1569],[116.3249,29.1407],[116.3646,29.1669],[116.3658,29.1475],[116.3797,29.1548],[116.3932,29.1407],[116.3932,29.1884],[116.422,29.176],[116.4456,29.2152],[116.4273,29.2779],[116.4636,29.2696],[116.4886,29.2025],[116.5059,29.2231],[116.4956,29.2505],[116.5233,29.209],[116.5419,29.2293],[116.5371,29.2573],[116.5554,29.2523],[116.558,29.2711],[116.5704,29.2481],[116.619,29.2369],[116.6054,29.2369],[116.619,29.2022],[116.6263,29.264],[116.6884,29.2163],[116.6514,29.2075],[116.619,29.1681],[116.6237,29.1504],[116.6884,29.1681]]]}},{"type":"Feature","properties":{"name":"Daguan Hu","scalerank":4},"geometry":{"type":"Polygon","coordinates":[[[116.4597,30.0809],[116.4368,30.0509],[116.4948,30.0388],[116.531,29.9835],[116.5092,29.9628],[116.4424,29.9481],[116.3658,29.9896],[116.3311,29.9487],[116.309,29.9637],[116.3037,29.9896],[116.2696,30.0041],[116.2893,30.0176],[116.2572,30.0108],[116.2551,30.0662],[116.2404,30.06],[116.2348,30.0721],[116.2431,30.1071],[116.2551,30.0935],[116.2469,30.1392],[116.2696,30.1206],[116.2866,30.0597],[116.3037,30.0588],[116.2893,30.0994],[116.3105,30.1268],[116.3205,30.0812],[116.3311,30.0729],[116.3396,30.0853],[116.3861,30.0588],[116.3876,30.04],[116.4209,30.0588],[116.4109,30.0765],[116.4441,30.1012],[116.4597,30.0809]]]}},{"type":"Feature","properties":{"name":"Long Hu","scalerank":4},"geometry":{"type":"Polygon","coordinates":[[[116.2472,30.0364],[116.249,29.9835],[116.2696,29.9835],[116.2634,29.9275],[116.2007,29.8934],[116.0915,29.9016],[116.0403,29.8669],[116.002,29.894],[115.9923,29.9531],[115.9363,29.9932],[115.934,30.045],[115.9958,29.9835],[116.0164,29.9896],[115.9958,30.0211],[116.0129,30.045],[116.0612,29.9737],[116.0815,29.9737],[116.0915,29.9835],[116.0715,29.9896],[116.0859,29.997],[116.1088,29.9767],[116.1483,29.9793],[116.1604,29.9835],[116.1527,29.9961],[116.108,29.997],[116.133,30.0114],[116.1412,30.085],[116.186,30.0626],[116.193,30.0161],[116.2181,29.9908],[116.236,30.0005],[116.2157,30.045],[116.2472,30.0364]]]}},{"type":"Feature","properties":{"name":"Liangzi Hu","scalerank":4},"geometry":{"type":"Polygon","coordinates":[[[114.3827,30.1822],[114.3306,30.1889],[114.358,30.2237],[114.3833,30.206],[114.3995,30.2298],[114.4124,30.2237],[114.3715,30.2914],[114.4286,30.2643],[114.4675,30.2649],[114.4336,30.3058],[114.5016,30.2787],[114.5152,30.2996],[114.5564,30.3058],[114.4213,30.3426],[114.4277,30.3661],[114.4539,30.3467],[114.4601,30.3747],[114.5228,30.3744],[114.5434,30.3323],[114.6317,30.2987],[114.6046,30.2681],[114.6526,30.1957],[114.5976,30.2095],[114.617,30.2007],[114.622,30.158],[114.6438,30.1401],[114.6526,30.0797],[114.6317,30.0644],[114.5776,30.1754],[114.5378,30.1339],[114.5299,30.1618],[114.5502,30.2298],[114.5046,30.2136],[114.4728,30.2325],[114.4769,30.1195],[114.441,30.0685],[114.4221,30.0821],[114.4401,30.1147],[114.4263,30.1268],[114.4395,30.1586],[114.4124,30.1754],[114.3647,30.1071],[114.3624,30.1471],[114.3827,30.1822]]]}},{"type":"Feature","properties":{"name":"Siling Co","scalerank":4},"geometry":{"type":"Polygon","coordinates":[[[89.3426,31.8162],[89.3311,31.7832],[89.297,31.7779],[89.2699,31.792],[89.277,31.8271],[89.2484,31.8029],[89.2355,31.676],[89.1262,31.5595],[89.0641,31.6113],[88.9752,31.6004],[88.9411,31.6228],[88.9243,31.6522],[88.9802,31.7099],[88.9379,31.7358],[88.8407,31.7355],[88.7804,31.6967],[88.6538,31.7178],[88.6503,31.7861],[88.6123,31.7791],[88.6017,31.81],[88.5587,31.8185],[88.5572,31.8406],[88.5714,31.8692],[88.6049,31.8815],[88.7306,31.8827],[88.7495,31.8709],[88.7371,31.8356],[88.7495,31.8194],[88.8069,31.8135],[88.8245,31.8194],[88.7983,31.8494],[88.8245,31.8815],[88.8457,31.8742],[89.0097,31.9369],[89.03,31.9168],[89.1554,31.9242],[89.1913,31.8959],[89.2858,31.8733],[89.3426,31.8162]]]}},{"type":"Feature","properties":{"name":"Har Us Nuur","scalerank":4},"geometry":{"type":"Polygon","coordinates":[[[92.8205,48.2664],[92.817,48.1878],[92.6957,48.088],[92.532,48.0951],[92.4426,48.02],[92.3513,47.9853],[92.2686,47.8658],[92.2721,47.7875],[92.228,47.7639],[92.1573,47.7763],[92.0731,47.7595],[91.9622,47.98],[91.9657,48.0124],[92.011,48.0339],[92.1918,48.0621],[92.2518,48.1092],[92.2812,48.1587],[92.2786,48.2084],[92.2992,48.2396],[92.2656,48.2888],[92.1968,48.3353],[92.2521,48.3689],[92.3492,48.3353],[92.3501,48.3689],[92.4022,48.3697],[92.5456,48.3318],[92.5273,48.32],[92.4396,48.3223],[92.3934,48.2437],[92.381,48.1398],[92.4632,48.1019],[92.5247,48.1095],[92.5418,48.136],[92.6371,48.1899],[92.6622,48.2323],[92.7243,48.1981],[92.5944,48.3112],[92.6009,48.3418],[92.7569,48.3253],[92.8205,48.2664]]]}},{"type":"Feature","properties":{"name":"Ayakkum Hu","scalerank":5},"geometry":{"type":"Polygon","coordinates":[[[89.6702,37.4997],[89.5987,37.4986],[89.6128,37.4841],[89.5793,37.4915],[89.5504,37.4747],[89.44,37.4762],[89.282,37.5318],[89.1645,37.5257],[89.0768,37.5639],[89.0715,37.5878],[89.1083,37.6066],[89.1945,37.5878],[89.3417,37.6416],[89.5442,37.6257],[89.6543,37.5828],[89.6499,37.5501],[89.6193,37.5601],[89.6111,37.5424],[89.6744,37.5121],[89.6702,37.4997]]]}},{"type":"Feature","properties":{"name":"Ngoring Hu","scalerank":5},"geometry":{"type":"Polygon","coordinates":[[[97.8553,34.8873],[97.9015,34.8216],[97.85,34.8281],[97.8571,34.8084],[97.8453,34.8066],[97.7608,34.849],[97.7549,34.8172],[97.7349,34.8084],[97.6984,34.8422],[97.6787,34.8151],[97.6972,34.7998],[97.6884,34.786],[97.6048,34.7845],[97.566,34.8149],[97.5454,34.8893],[97.5916,34.9464],[97.6719,34.9653],[97.6328,34.9706],[97.624,34.9862],[97.6504,35.0424],[97.7296,35.086],[97.7685,35.0877],[97.7711,35.0512],[97.8082,35.01],[97.7885,34.9788],[97.8003,34.9146],[97.8553,34.8873]]]}},{"type":"Feature","properties":{"name":"Gaoyou Hu","scalerank":5},"geometry":{"type":"Polygon","coordinates":[[[119.3881,33.0022],[119.4084,32.7661],[119.3804,32.7322],[119.3519,32.7408],[119.3192,32.779],[119.2815,32.7178],[119.2273,32.7593],[119.2076,32.6904],[119.177,32.6672],[119.1546,32.704],[119.1749,32.7178],[119.142,32.7381],[119.1208,32.7858],[119.129,32.8182],[119.0822,32.8323],[119.0448,32.8759],[119.0666,32.8838],[119.1134,32.8479],[119.1449,32.91],[119.1608,32.8815],[119.2265,32.8514],[119.2847,32.8759],[119.2394,32.8773],[119.2371,32.9368],[119.2644,32.93],[119.2765,32.9512],[119.2235,32.9989],[119.2644,33.0192],[119.278,33.054],[119.3159,33.0192],[119.3283,33.0342],[119.2986,33.112],[119.2297,33.1423],[119.2365,33.1761],[119.1955,33.1702],[119.1585,33.1343],[119.1546,33.074],[119.1955,33.0875],[119.0757,33.0192],[118.9704,33.0466],[118.9218,33.0398],[118.84,33.1014],[118.8888,33.0966],[118.9003,33.0696],[118.9459,33.074],[119.0525,33.0466],[119.1222,33.0693],[119.157,33.1658],[119.2371,33.205],[119.245,33.2276],[119.258,33.2218],[119.2685,33.1694],[119.3159,33.139],[119.3468,33.0601],[119.3418,33.0192],[119.3053,32.9913],[119.3795,33.0204],[119.3881,33.0022]]]}},{"type":"Feature","properties":{"name":"Danau Toba","scalerank":5},"geometry":{"type":"Polygon","coordinates":[[[99.1438,2.421],[99.142,2.3815],[99.1176,2.3877],[99.0766,2.3509],[99.0257,2.358],[98.9757,2.3397],[98.8606,2.3536],[98.827,2.3365],[98.83,2.383],[98.7885,2.4492],[98.6787,2.5517],[98.676,2.6008],[98.7031,2.5979],[98.7408,2.5316],[98.8777,2.431],[98.9774,2.4634],[98.966,2.5105],[98.845,2.6774],[98.7664,2.7483],[98.701,2.7436],[98.6787,2.7097],[98.676,2.6273],[98.6277,2.652],[98.5915,2.7359],[98.5247,2.8007],[98.5141,2.8881],[98.6513,2.8811],[98.7263,2.8543],[98.9112,2.7003],[98.9262,2.645],[98.9174,2.6208],[99.036,2.4901],[99.049,2.3968],[99.1037,2.4224],[99.1438,2.421]]]}},{"type":"Feature","properties":{"name":"Gyaring Hu","scalerank":5},"geometry":{"type":"Polygon","coordinates":[[[97.3172,35.0342],[97.4868,34.9838],[97.4862,34.967],[97.4721,34.9561],[97.452,34.9653],[97.4459,34.9367],[97.3961,34.9091],[97.3787,34.8728],[97.3043,34.8293],[97.2483,34.836],[97.0694,34.9352],[97.0558,34.9979],[97.0859,35.0097],[97.0959,34.9862],[97.1229,35.028],[97.163,35.013],[97.2501,35.0135],[97.3172,35.0342]]]}},{"type":"Feature","properties":{"name":"Langa Co","scalerank":5},"geometry":{"type":"Polygon","coordinates":[[[81.2408,30.7459],[81.328,30.6417],[81.2991,30.6081],[81.2355,30.5999],[81.2182,30.621],[81.1437,30.629],[81.1087,30.6761],[81.1354,30.6893],[81.1596,30.6761],[81.1837,30.6926],[81.1767,30.7097],[81.2037,30.7827],[81.1899,30.8468],[81.224,30.8574],[81.2962,30.8215],[81.2917,30.7877],[81.2597,30.7847],[81.2408,30.7459]]]}},{"type":"Feature","properties":{"name":"Mapam Yumco","scalerank":5},"geometry":{"type":"Polygon","coordinates":[[[81.6029,30.7226],[81.6035,30.6902],[81.5743,30.6558],[81.4513,30.5663],[81.4454,30.5654],[81.4242,30.5663],[81.3621,30.6143],[81.3786,30.6414],[81.3756,30.7644],[81.4066,30.7885],[81.534,30.7644],[81.6029,30.7226]]]}},{"type":"Feature","properties":{"name":"Po Hu","scalerank":5},"geometry":{"type":"Polygon","coordinates":[[[116.4547,30.1174],[116.3932,30.0935],[116.3985,30.1086],[116.3841,30.113],[116.4067,30.1345],[116.3658,30.1548],[116.3932,30.1548],[116.3847,30.168],[116.3196,30.1774],[116.3217,30.2145],[116.2969,30.2237],[116.3258,30.2407],[116.3446,30.2237],[116.3446,30.2504],[116.3591,30.2443],[116.3726,30.2713],[116.3691,30.2237],[116.3973,30.2107],[116.4067,30.2237],[116.4188,30.1813],[116.4347,30.1754],[116.4273,30.2095],[116.4756,30.2095],[116.4856,30.1889],[116.5433,30.2366],[116.531,30.1686],[116.5433,30.1548],[116.5036,30.1374],[116.5498,30.1112],[116.5513,30.0959],[116.4824,30.0662],[116.5036,30.0994],[116.4612,30.0935],[116.4441,30.1012],[116.4547,30.1174]]]}},{"type":"Feature","properties":{"name":"Buyr Nuur","scalerank":5},"geometry":{"type":"Polygon","coordinates":[[[117.5718,47.6565],[117.5924,47.6974],[117.5406,47.7098],[117.5035,47.7595],[117.5124,47.7857],[117.6852,47.9547],[117.7393,47.9773],[117.7988,47.9709],[117.8318,47.9102],[117.873,47.889],[117.8821,47.834],[117.8688,47.8096],[117.8026,47.7474],[117.6734,47.6771],[117.5718,47.6565]]]}},{"type":"Feature","properties":{"name":"Ngangla Ringeo","scalerank":5},"geometry":{"type":"Polygon","coordinates":[[[83.3164,31.4438],[83.2602,31.4715],[83.2531,31.4591],[83.1783,31.4638],[83.1442,31.4497],[83.0809,31.5189],[83.0429,31.5365],[83.0279,31.5186],[82.9796,31.5253],[82.9396,31.4997],[82.8327,31.5454],[82.8233,31.5736],[82.9723,31.573],[82.9417,31.6178],[82.9175,31.621],[82.9284,31.6348],[82.9796,31.6413],[83.0347,31.6198],[83.0727,31.6546],[83.1159,31.6557],[83.1203,31.6319],[83.0891,31.6057],[83.1306,31.6151],[83.1406,31.5869],[83.2013,31.5736],[83.3767,31.4364],[83.3164,31.4438]]]}},{"type":"Feature","properties":{"name":"Tangra Yumco","scalerank":5},"geometry":{"type":"Polygon","coordinates":[[[86.7619,31.3131],[86.7961,31.1418],[86.774,31.1229],[86.6869,31.1212],[86.6141,31.0788],[86.5974,31.0523],[86.6068,31.002],[86.5217,30.8816],[86.525,30.8242],[86.4511,30.7691],[86.4125,30.7847],[86.376,30.8713],[86.4266,30.893],[86.454,30.9999],[86.5709,31.09],[86.615,31.2112],[86.6256,31.3399],[86.6477,31.3687],[86.7342,31.3469],[86.7619,31.3131]]]}},{"type":"Feature","properties":{"name":"Yamzho Yumco","scalerank":5},"geometry":{"type":"Polygon","coordinates":[[[91.0022,28.8761],[90.9151,28.9396],[90.8992,28.9358],[90.8939,28.9529],[90.853,28.9117],[90.8598,28.9396],[90.8115,28.9261],[90.8053,28.9529],[90.7576,28.9226],[90.7635,28.9564],[90.7294,28.9744],[90.7226,28.9529],[90.7644,28.897],[90.7662,28.8722],[90.7294,28.8572],[90.7338,28.8743],[90.7023,28.9058],[90.6566,28.9058],[90.6475,28.892],[90.6802,28.8787],[90.6043,28.8216],[90.5931,28.7857],[90.5074,28.7822],[90.5036,28.8231],[90.4562,28.846],[90.4373,28.8937],[90.4903,28.8843],[90.4968,28.851],[90.5292,28.8678],[90.5248,28.8131],[90.5519,28.8095],[90.5445,28.8231],[90.5657,28.8366],[90.5519,28.892],[90.6413,28.9196],[90.5992,28.9396],[90.6004,28.9591],[90.6946,28.982],[90.6905,29.0221],[90.6475,29.0762],[90.6658,29.0868],[90.6566,29.1398],[90.6287,29.1692],[90.5725,29.1863],[90.4359,29.131],[90.3944,29.0974],[90.3967,29.0789],[90.3611,29.1115],[90.5483,29.1999],[90.6611,29.1793],[90.7411,29.1422],[90.7226,29.131],[90.737,29.111],[90.7158,29.111],[90.7199,29.0568],[90.7538,29.0285],[90.7915,29.0353],[90.7738,29.0165],[90.7432,29.0156],[90.7591,28.9997],[90.8324,28.967],[90.8183,28.9809],[90.8462,29.0285],[90.9328,29.0282],[91.0134,28.9676],[91.0175,28.9467],[90.9699,28.9602],[90.9519,28.9444],[91.042,28.8746],[91.0022,28.8761]]]}},{"type":"Feature","properties":{"name":"Shijiu Hu","scalerank":5},"geometry":{"type":"Polygon","coordinates":[[[118.8229,31.402],[118.7643,31.4844],[118.7914,31.4291],[118.784,31.3893],[118.7322,31.4885],[118.736,31.5047],[118.7572,31.5047],[118.6884,31.5389],[118.7225,31.5595],[118.802,31.5321],[118.9392,31.5657],[118.9765,31.4844],[118.9565,31.4482],[118.908,31.44],[118.8944,31.4023],[118.8576,31.3817],[118.8229,31.402]]]}},{"type":"Feature","properties":{"name":"Hong Hu","scalerank":5},"geometry":{"type":"Polygon","coordinates":[[[113.4534,29.9561],[113.4619,29.8999],[113.4457,29.8722],[113.3904,29.8513],[113.3922,29.8033],[113.32,29.7365],[113.2794,29.7606],[113.27,29.7998],[113.2462,29.8107],[113.2217,29.8613],[113.227,29.9078],[113.2953,29.9066],[113.3056,29.8745],[113.3512,29.8463],[113.3571,29.8669],[113.3377,29.8807],[113.3533,29.9431],[113.3816,29.9631],[113.4534,29.9561]]]}},{"type":"Feature","properties":{"name":"Chao Hu","scalerank":5},"geometry":{"type":"Polygon","coordinates":[[[117.9527,31.5268],[117.9554,31.498],[117.9257,31.5242],[117.9286,31.5389],[117.8462,31.5833],[117.7682,31.5913],[117.6475,31.4623],[117.6127,31.4435],[117.548,31.4385],[117.442,31.4841],[117.3837,31.543],[117.3043,31.573],[117.2889,31.661],[117.3063,31.7043],[117.3605,31.7205],[117.4382,31.6902],[117.4276,31.6351],[117.452,31.5969],[117.5459,31.5801],[117.6454,31.6575],[117.7067,31.6599],[117.8462,31.6078],[117.9527,31.5268]]]}},{"type":"Feature","properties":{"name":"Lake Sevan","scalerank":5},"geometry":{"type":"Polygon","coordinates":[[[45.1215,40.4496],[44.9604,40.5196],[44.9666,40.537],[45.0125,40.5582],[44.9775,40.5906],[44.9863,40.6274],[45.0908,40.6021],[45.2218,40.5335],[45.2969,40.4793],[45.3031,40.4575],[45.3508,40.4478],[45.3578,40.4887],[45.4061,40.4681],[45.4909,40.3857],[45.5836,40.3454],[45.6493,40.275],[45.6616,40.2011],[45.6301,40.1708],[45.563,40.1717],[45.5086,40.1461],[45.4441,40.1661],[45.3805,40.1393],[45.286,40.1476],[45.2333,40.1997],[45.2207,40.2418],[45.2266,40.3719],[45.2071,40.3998],[45.1659,40.3863],[45.1285,40.3998],[45.1215,40.4496]]]}},{"type":"Feature","properties":{"name":null,"scalerank":5},"geometry":{"type":"Polygon","coordinates":[[[114.8575,30.3131],[114.8378,30.2713],[114.7966,30.2987],[114.7851,30.2925],[114.7966,30.2649],[114.7816,30.2581],[114.7209,30.3131],[114.7398,30.2799],[114.7348,30.2443],[114.7892,30.2237],[114.7757,30.2095],[114.7489,30.2237],[114.7277,30.1957],[114.6503,30.241],[114.6491,30.2537],[114.7006,30.2649],[114.6732,30.2713],[114.6868,30.2914],[114.6623,30.2914],[114.6688,30.3131],[114.7174,30.3226],[114.7489,30.3602],[114.783,30.3323],[114.7851,30.3529],[114.8219,30.3458],[114.8575,30.3131]]]}},{"type":"Feature","properties":{"name":null,"scalerank":5},"geometry":{"type":"Polygon","coordinates":[[[114.589,30.6729],[114.6111,30.634],[114.6732,30.6278],[114.6282,30.7173],[114.6732,30.7303],[114.6974,30.7097],[114.698,30.7358],[114.7209,30.7438],[114.7091,30.7676],[114.7209,30.7847],[114.73,30.7438],[114.773,30.7147],[114.7836,30.6702],[114.8036,30.6558],[114.7489,30.6481],[114.6756,30.6093],[114.6317,30.6131],[114.5955,30.6364],[114.5702,30.6687],[114.589,30.6729]]]}},{"type":"Feature","properties":{"name":"Weishan Hu","scalerank":5},"geometry":{"type":"Polygon","coordinates":[[[117.339,34.6123],[117.3405,34.58],[117.2601,34.4996],[117.2018,34.4725],[117.195,34.5276],[117.1691,34.5361],[117.1291,34.6374],[117.1341,34.7236],[117.1179,34.738],[117.135,34.756],[117.1477,34.7345],[117.2566,34.6844],[117.339,34.6123]]]}},{"type":"Feature","properties":{"name":null,"scalerank":5},"geometry":{"type":"Polygon","coordinates":[[[114.6488,30.3388],[114.5575,30.3617],[114.5572,30.3859],[114.5157,30.4191],[114.4675,30.4224],[114.5019,30.4497],[114.5584,30.4209],[114.5637,30.4359],[114.5882,30.4053],[114.5905,30.3602],[114.6135,30.3879],[114.6111,30.4285],[114.6388,30.4123],[114.6588,30.4359],[114.6453,30.4285],[114.6526,30.4565],[114.602,30.4739],[114.6043,30.5113],[114.6732,30.4633],[114.6935,30.4906],[114.6526,30.5242],[114.6868,30.5242],[114.7003,30.5039],[114.7436,30.5098],[114.7533,30.4951],[114.7415,30.4771],[114.7786,30.4768],[114.7277,30.4497],[114.7551,30.4497],[114.7565,30.4156],[114.7274,30.4179],[114.7074,30.4497],[114.6656,30.3876],[114.6732,30.3602],[114.6488,30.3388]]]}},{"type":"Feature","properties":{"name":"Huangtang Hu","scalerank":5},"geometry":{"type":"Polygon","coordinates":[[[114.3053,30.0364],[114.2888,29.9893],[114.2417,29.9835],[114.2449,29.9684],[114.2014,29.952],[114.2758,29.9219],[114.2564,29.894],[114.1996,29.9007],[114.1628,29.9211],[114.1519,29.9352],[114.1372,30.0082],[114.1519,30.1139],[114.1587,30.0994],[114.2296,30.1545],[114.2617,30.1406],[114.224,30.1027],[114.2276,30.0797],[114.2432,30.0753],[114.2617,30.0244],[114.2897,30.0588],[114.2897,30.032],[114.3053,30.0364]]]}},{"type":"Feature","properties":{"name":null,"scalerank":5},"geometry":{"type":"Polygon","coordinates":[[[114.1578,29.8869],[114.1607,29.8516],[114.1381,29.8737],[114.1178,29.8463],[114.116,29.9057],[114.0751,29.9699],[114.0562,29.9767],[114.0701,29.9343],[114.0398,29.8954],[113.9679,29.8669],[113.9538,29.9016],[114.015,29.929],[113.9921,29.9767],[113.947,29.9487],[113.9538,29.9699],[113.9264,29.9973],[113.985,29.9835],[114.0065,30.0058],[114.0283,29.9896],[114.098,30.0359],[114.0904,30.0244],[114.1578,29.8869]]]}},{"type":"Feature","properties":{"name":"Hoh Xil Hu","scalerank":5},"geometry":{"type":"Polygon","coordinates":[[[91.223,35.6623],[91.339,35.5799],[91.2707,35.5655],[91.3001,35.5287],[91.233,35.5266],[91.16,35.5514],[91.0723,35.5575],[91.0037,35.5999],[90.9419,35.6146],[90.9322,35.6314],[90.9566,35.655],[91.0119,35.6282],[91.0281,35.6488],[91.1497,35.6267],[91.223,35.6347],[91.223,35.6623]]]}},{"type":"Feature","properties":{"name":null,"scalerank":5},"geometry":{"type":"Polygon","coordinates":[[[85.9,30.9446],[85.8859,30.9136],[85.8782,30.9363],[85.8417,30.9313],[85.8618,30.8559],[85.8435,30.7774],[85.8155,30.7476],[85.7614,30.7582],[85.7887,30.7718],[85.7729,30.7956],[85.8099,30.8194],[85.762,30.8309],[85.734,30.8742],[85.6754,30.8816],[85.6107,30.8607],[85.598,30.8713],[85.5745,30.8197],[85.3778,30.8886],[85.3313,30.9572],[85.354,31.0081],[85.4052,31.0455],[85.3996,31.0702],[85.412,31.0811],[85.6292,30.999],[85.6277,31.0273],[85.6516,31.0388],[85.6748,31.019],[85.6851,31.0376],[85.7472,31.0273],[85.8029,30.997],[85.8806,30.9843],[85.9,30.9446]]]}},{"type":"Feature","properties":{"name":null,"scalerank":6},"geometry":{"type":"Polygon","coordinates":[[[90.2908,33.3136],[90.1604,33.3898],[90.1241,33.3578],[89.9964,33.4034],[90.017,33.434],[89.9949,33.4752],[90.138,33.4037],[90.1813,33.3966],[90.2943,33.4575],[90.3028,33.4799],[90.2701,33.6021],[90.2934,33.613],[90.2981,33.7251],[90.3417,33.6639],[90.3255,33.6568],[90.344,33.6085],[90.402,33.5305],[90.4079,33.4199],[90.3529,33.4099],[90.3396,33.3757],[90.3117,33.3619],[90.3108,33.3192],[90.2908,33.3136]]]}},{"type":"Feature","properties":{"name":null,"scalerank":6},"geometry":{"type":"Polygon","coordinates":[[[89.9731,33.4923],[89.9728,33.472],[89.9487,33.4575],[89.9469,33.386],[89.9025,33.3583],[89.8704,33.293],[89.8324,33.2727],[89.8433,33.2474],[89.8251,33.2429],[89.7936,33.2665],[89.8115,33.28],[89.7777,33.3477],[89.7889,33.4116],[89.8183,33.4234],[89.7288,33.4369],[89.6614,33.4923],[89.7886,33.4534],[89.838,33.4702],[89.863,33.5191],[89.9296,33.5252],[89.9731,33.4923]]]}},{"type":"Feature","properties":{"name":null,"scalerank":6},"geometry":{"type":"Polygon","coordinates":[[[75.9367,32.089],[75.9187,32.1267],[75.9455,32.1353],[75.9373,32.1776],[75.9744,32.1682],[76.0061,32.1329],[76.0424,32.167],[76.0456,32.0999],[76.1109,32.0811],[76.1048,32.0475],[76.1224,32.0175],[76.1728,32.0137],[76.1574,31.9801],[76.1966,31.9062],[76.1978,31.8736],[76.1554,31.8874],[76.1236,31.8733],[76.0712,31.9239],[75.9349,31.9645],[75.9582,32.0369],[75.9314,32.0558],[75.9367,32.089]]]}},{"type":"Feature","properties":{"name":null,"scalerank":6},"geometry":{"type":"Polygon","coordinates":[[[91.5339,32.094],[91.5183,31.9504],[91.4632,31.9295],[91.4635,31.9525],[91.4314,31.9807],[91.422,32.0734],[91.4838,32.1353],[91.5109,32.1356],[91.5339,32.094]]]}},{"type":"Feature","properties":{"name":null,"scalerank":6},"geometry":{"type":"Polygon","coordinates":[[[87.605,31.9575],[87.6109,31.9039],[87.5552,31.8509],[87.4472,31.8332],[87.4175,31.8435],[87.4189,31.9127],[87.4999,31.9625],[87.539,31.9792],[87.605,31.9575]]]}},{"type":"Feature","properties":{"name":"Banggong Co","scalerank":6},"geometry":{"type":"Polygon","coordinates":[[[78.9804,33.7357],[78.9704,33.7116],[78.8618,33.6895],[78.8238,33.6989],[78.7582,33.6698],[78.7275,33.678],[78.6563,33.7384],[78.591,33.827],[78.4567,33.9209],[78.4355,33.9789],[78.4479,33.9677],[78.4973,33.9777],[78.5453,33.8964],[78.5595,33.9059],[78.6107,33.8699],[78.6796,33.7831],[78.759,33.7289],[78.7855,33.7251],[78.8135,33.746],[78.8559,33.7304],[78.8956,33.746],[78.9804,33.7357]]]}},{"type":"Feature","properties":{"name":"Puma Yumco","scalerank":5},"geometry":{"type":"Polygon","coordinates":[[[90.249,28.6253],[90.4577,28.6197],[90.5274,28.5723],[90.5342,28.5311],[90.4724,28.5193],[90.4462,28.5322],[90.415,28.5134],[90.39,28.5211],[90.3961,28.5352],[90.3699,28.5464],[90.3546,28.537],[90.3417,28.5534],[90.3117,28.5325],[90.2334,28.5941],[90.249,28.6253]]]}},{"type":"Feature","properties":{"name":"Lake Zaysan","scalerank":3},"geometry":{"type":"Polygon","coordinates":[[[84.4812,47.9567],[84.5621,47.9308],[84.4647,47.9067],[84.4379,47.8534],[84.384,47.8346],[84.3752,47.8048],[84.3908,47.7731],[84.3446,47.7592],[84.2698,47.7786],[84.2339,47.7731],[84.2781,47.7321],[84.3637,47.7321],[84.2566,47.718],[84.0962,47.8207],[83.8362,47.8829],[83.7883,47.9511],[83.6988,47.9791],[83.6496,48.0194],[83.531,48.0262],[83.4109,48.0612],[83.3526,48.0468],[83.3067,48.0539],[83.2119,48.0995],[83.1571,48.1478],[83.085,48.1554],[83.012,48.2096],[82.9999,48.2399],[83.0235,48.2667],[83.1074,48.2252],[83.1613,48.2591],[83.2569,48.2735],[83.4362,48.2585],[83.4792,48.2735],[83.5071,48.3353],[83.5957,48.3689],[83.4315,48.4274],[83.3841,48.5057],[83.3906,48.5266],[83.3694,48.5608],[83.425,48.5887],[83.4494,48.6514],[83.415,48.733],[83.4488,48.8654],[83.5722,48.9688],[83.6269,48.9755],[83.765,49.0465],[83.9684,49.0739],[84.1565,49.1348],[84.1815,49.1616],[84.1568,49.2322],[84.11,49.2569],[84.0202,49.3429],[83.9216,49.38],[83.8975,49.4112],[83.8356,49.4368],[83.7023,49.4521],[83.6576,49.4174],[83.6243,49.4851],[83.5392,49.5351],[83.5263,49.5578],[83.4792,49.5272],[83.4315,49.5407],[83.4315,49.5816],[83.3638,49.6437],[83.445,49.6234],[83.4692,49.5961],[83.6134,49.6167],[83.7367,49.5961],[83.7535,49.6308],[83.8315,49.6605],[83.8724,49.7153],[84.007,49.7468],[84.0143,49.7326],[83.9681,49.6964],[83.8824,49.6808],[83.8012,49.627],[83.7883,49.5999],[83.8089,49.5619],[83.7058,49.5681],[83.7235,49.5278],[83.6723,49.5104],[83.8295,49.4801],[83.8156,49.4656],[83.9051,49.4589],[83.9281,49.4103],[83.9931,49.3932],[84.0888,49.3149],[84.2904,49.2022],[84.3417,49.1901],[84.4438,49.2034],[84.4803,49.1845],[84.3876,49.1707],[84.316,49.123],[83.9967,49.0547],[83.9316,49.0003],[83.7965,48.9885],[83.5822,48.9243],[83.5475,48.8966],[83.5475,48.8766],[83.4695,48.7942],[83.4518,48.7345],[83.4609,48.7038],[83.5283,48.6394],[83.528,48.5204],[83.5619,48.4651],[83.6546,48.4033],[83.7129,48.3903],[83.7674,48.3968],[83.8156,48.4242],[83.9658,48.3968],[83.9307,48.3709],[83.8012,48.3553],[83.6914,48.3765],[83.5433,48.3056],[83.5039,48.2764],[83.5107,48.2652],[83.9693,48.1304],[84.0735,48.0821],[84.0897,48.0398],[84.1568,48.0689],[84.218,48.0433],[84.3487,48.0333],[84.4812,47.9567]]]}},{"type":"Feature","properties":{"name":"Lake Habbaniyah","scalerank":6},"geometry":{"type":"Polygon","coordinates":[[[43.4162,33.2521],[43.2873,33.3215],[43.2952,33.3489],[43.3567,33.3757],[43.3709,33.4446],[43.4256,33.4166],[43.4339,33.3675],[43.4819,33.3295],[43.5113,33.3271],[43.5292,33.3557],[43.5702,33.3374],[43.5969,33.293],[43.549,33.2112],[43.4665,33.1838],[43.4289,33.2011],[43.4465,33.2521],[43.4162,33.2521]]]}},{"type":"Feature","properties":{"name":"Buhayrat ath Tharthar","scalerank":3},"geometry":{"type":"Polygon","coordinates":[[[43.2914,33.7198],[43.2746,33.7325],[43.2611,33.7183],[43.2228,33.7516],[43.2007,33.7816],[43.2078,33.7949],[43.1369,33.8614],[43.0783,33.9468],[43.0886,33.973],[43.0692,33.9995],[43.083,34.0118],[43.0898,34.0751],[43.0677,34.0854],[43.0753,34.1767],[43.0512,34.2535],[43.0803,34.295],[43.0865,34.3489],[43.1101,34.308],[43.1148,34.3459],[43.1519,34.3141],[43.1451,34.2526],[43.1689,34.2391],[43.2196,34.1434],[43.2952,34.1019],[43.2952,34.0675],[43.3226,34.0948],[43.3294,34.0472],[43.3573,34.0416],[43.3635,34.0124],[43.4124,34.036],[43.4392,34.0124],[43.4465,33.9653],[43.5033,33.9244],[43.5075,33.8758],[43.453,33.8758],[43.5148,33.8479],[43.4727,33.8479],[43.4695,33.8017],[43.4945,33.7766],[43.4665,33.7045],[43.4418,33.693],[43.3088,33.7325],[43.2914,33.7198]]]}},{"type":"Feature","properties":{"name":"Nam Ngum Reservoir","scalerank":5},"geometry":{"type":"Polygon","coordinates":[[[102.795,18.5521],[102.9608,18.5386],[102.7229,18.5268],[102.6935,18.505],[102.6585,18.4326],[102.6067,18.4647],[102.5793,18.5059],[102.5128,18.717],[102.4842,18.7658],[102.5119,18.7585],[102.5233,18.7717],[102.5769,18.7255],[102.5772,18.6799],[102.5966,18.6831],[102.584,18.6713],[102.5908,18.6528],[102.6058,18.6584],[102.6167,18.6993],[102.637,18.6961],[102.6467,18.6516],[102.6187,18.6407],[102.6379,18.6113],[102.7809,18.7134],[102.7535,18.6513],[102.7179,18.6313],[102.7203,18.6113],[102.7824,18.5763],[102.7777,18.5601],[102.795,18.5521]]]}},{"type":"Feature","properties":{"name":"Toktogul Suu Saktagychy","scalerank":5},"geometry":{"type":"Polygon","coordinates":[[[73.3045,41.7736],[73.2903,41.7557],[73.1744,41.7354],[73.0437,41.7839],[72.9,41.7301],[72.777,41.7551],[72.7078,41.6947],[72.6454,41.665],[72.5906,41.7015],[72.6316,41.688],[72.6731,41.7015],[72.6707,41.7186],[72.7419,41.7842],[72.6525,41.8661],[72.6254,41.8728],[72.5906,41.9211],[72.85,41.8852],[72.9194,41.9008],[72.9536,41.859],[72.9715,41.8711],[73.0716,41.8522],[73.0866,41.8069],[73.3045,41.7736]]]}},{"type":"Feature","properties":{"name":"Shardara Bgeni","scalerank":6},"geometry":{"type":"Polygon","coordinates":[[[68.3839,41.1381],[68.4557,41.1069],[68.3692,41.0504],[68.3244,41.0574],[68.2735,41.0162],[68.1169,41.0669],[68.0954,41.0654],[68.0819,41.043],[68.0586,41.0551],[68.0339,41.043],[68.0027,41.116],[67.9491,41.1722],[67.9309,41.2152],[67.91,41.2217],[67.912,41.242],[68.0292,41.242],[68.0916,41.1746],[68.1575,41.2081],[68.2399,41.2076],[68.2806,41.1566],[68.335,41.1331],[68.3839,41.1381]]]}},{"type":"Feature","properties":{"name":"Issyk-Kul","scalerank":2},"geometry":{"type":"Polygon","coordinates":[[[78.1108,42.5996],[78.3275,42.5952],[78.3004,42.5634],[78.1509,42.574],[78.0287,42.4751],[77.8294,42.4348],[77.8124,42.4209],[77.8227,42.4027],[77.8927,42.3918],[77.9148,42.3738],[77.8518,42.3615],[77.7921,42.2938],[77.6873,42.2146],[77.4812,42.1619],[77.463,42.1813],[77.39,42.1698],[77.2893,42.181],[77.1368,42.1534],[76.9608,42.1866],[76.9355,42.1672],[76.9075,42.1975],[76.8198,42.2205],[76.755,42.262],[76.7064,42.2511],[76.5619,42.2802],[76.3968,42.3456],[76.3717,42.3473],[76.3141,42.3155],[76.2705,42.3185],[76.2396,42.3373],[76.196,42.4398],[76.2257,42.4692],[76.3046,42.4822],[76.4562,42.4683],[76.4971,42.5101],[76.5996,42.5137],[76.6746,42.5655],[76.9817,42.614],[77.014,42.6064],[77.0838,42.6396],[77.2195,42.6488],[77.3496,42.6817],[77.4356,42.6535],[77.528,42.6473],[77.5792,42.6761],[77.7844,42.7227],[77.9172,42.7268],[77.9831,42.7132],[78.1373,42.7403],[78.3063,42.743],[78.2498,42.7194],[78.2015,42.7212],[78.1691,42.6747],[78.1209,42.6679],[78.0817,42.6229],[78.1108,42.5996]]]}},{"type":"Feature","properties":{"name":"Uvs Nuur","scalerank":3},"geometry":{"type":"Polygon","coordinates":[[[92.7525,50.0],[92.6898,49.9932],[92.58,50.0],[92.7525,50.0]]]}},{"type":"Feature","properties":{"name":"Qinghai Hu","scalerank":3},"geometry":{"type":"Polygon","coordinates":[[[100.7519,36.8254],[100.7616,36.7812],[100.7015,36.7762],[100.6933,36.7574],[100.7419,36.6841],[100.7127,36.566],[100.6494,36.5416],[100.4984,36.5784],[100.4454,36.6228],[100.4811,36.644],[100.4104,36.6317],[100.3854,36.6658],[100.134,36.6237],[99.9809,36.6579],[99.9265,36.6891],[99.9079,36.72],[99.8108,36.7132],[99.7816,36.7609],[99.7914,36.7744],[99.7802,36.8112],[99.7019,36.8415],[99.6239,36.8981],[99.6177,36.9184],[99.6621,36.9669],[99.7816,36.9375],[99.8208,36.9513],[99.8423,36.9814],[99.8326,37.0379],[99.7808,37.082],[99.7546,37.1421],[99.7616,37.1648],[99.9842,37.2278],[100.0792,37.1913],[100.2155,37.1804],[100.2747,37.1963],[100.4696,37.0173],[100.5779,36.8701],[100.6797,36.8495],[100.7045,36.8627],[100.7519,36.8254]]]}},{"type":"Feature","properties":{"name":"Lake Razazah","scalerank":3},"geometry":{"type":"Polygon","coordinates":[[[43.8981,32.704],[43.8863,32.6018],[43.8021,32.5462],[43.7689,32.5053],[43.7409,32.5117],[43.7347,32.5606],[43.7135,32.5462],[43.7067,32.5668],[43.6823,32.5665],[43.6691,32.5332],[43.6517,32.5503],[43.652,32.5806],[43.6794,32.5806],[43.6638,32.588],[43.6111,32.5742],[43.6311,32.5948],[43.5837,32.6077],[43.5737,32.5909],[43.5378,32.5956],[43.4989,32.6124],[43.4292,32.7104],[43.4392,32.7313],[43.4256,32.7381],[43.4348,32.7528],[43.4115,32.807],[43.4256,32.7996],[43.4495,32.8367],[43.405,32.8759],[43.4392,32.8888],[43.4727,32.8759],[43.4554,32.8891],[43.4869,32.913],[43.4945,32.9442],[43.453,32.9851],[43.4869,33.026],[43.5045,33.0181],[43.526,33.0331],[43.5216,33.1046],[43.5348,33.1149],[43.5351,33.0737],[43.5554,33.0398],[43.6246,33.0125],[43.6161,32.9901],[43.7321,32.7755],[43.7544,32.7522],[43.8981,32.704]]]}},{"type":"Feature","properties":{"name":"Lake Urmia","scalerank":4},"geometry":{"type":"Polygon","coordinates":[[[45.9104,37.3888],[45.9089,37.3629],[45.8756,37.3741],[45.8347,37.3561],[45.8141,37.3231],[45.7485,37.2849],[45.7025,37.2943],[45.7005,37.3231],[45.6596,37.3096],[45.6236,37.264],[45.6001,37.1497],[45.5668,37.1238],[45.5121,37.1445],[45.4629,37.1212],[45.3958,37.1963],[45.3564,37.2107],[45.3169,37.2651],[45.3031,37.3361],[45.2825,37.3635],[45.3243,37.3908],[45.2925,37.4747],[45.2622,37.5045],[45.2822,37.5736],[45.2486,37.6042],[45.2628,37.6148],[45.2348,37.669],[45.2622,37.6958],[45.253,37.7603],[45.2207,37.8059],[45.1689,37.8386],[45.1456,37.8297],[45.0599,37.8577],[45.0479,37.954],[45.0599,37.9878],[45.0914,38.0152],[45.1812,38.0384],[45.1995,38.1135],[45.1727,38.1659],[45.14,38.13],[45.1115,38.1591],[45.0505,38.1264],[45.0037,38.1379],[45.0037,38.1756],[45.0493,38.2071],[45.0473,38.2504],[45.0941,38.268],[45.3617,38.266],[45.4847,38.1659],[45.5027,38.0955],[45.4738,38.0426],[45.4879,37.9878],[45.4538,37.9737],[45.4676,37.9601],[45.4061,37.901],[45.4217,37.7982],[45.4941,37.7273],[45.518,37.7376],[45.5221,37.7614],[45.6454,37.7673],[45.742,37.7117],[45.7555,37.7273],[45.7605,37.6996],[45.7967,37.6652],[45.7897,37.6413],[45.6599,37.6405],[45.7052,37.6134],[45.7258,37.5639],[45.7929,37.5259],[45.8315,37.45],[45.9104,37.3888]],[[45.5577,37.3405],[45.5297,37.397],[45.5383,37.4229],[45.4968,37.4365],[45.5086,37.412],[45.4838,37.4003],[45.5324,37.3741],[45.5427,37.3437],[45.5577,37.3405]],[[45.6663,37.4803],[45.664,37.5018],[45.6042,37.508],[45.5892,37.5283],[45.5668,37.5068],[45.5639,37.4871],[45.6116,37.4597],[45.6525,37.4871],[45.6663,37.4803]]]}},{"type":"Feature","properties":{"name":"Sarygamysh K\u00f6li","scalerank":4},"geometry":{"type":"Polygon","coordinates":[[[57.8836,41.8169],[57.8548,41.7757],[57.8539,41.6827],[57.7085,41.6588],[57.6184,41.5952],[57.5586,41.6082],[57.4945,41.5755],[57.4356,41.5994],[57.3523,41.5405],[57.2416,41.6129],[57.2322,41.7068],[57.1624,41.7501],[57.1371,41.7966],[57.118,41.7942],[57.0794,41.7206],[57.0747,41.6674],[57.0456,41.6938],[57.0335,41.7395],[57.0582,41.7969],[57.0721,41.947],[57.1972,42.2405],[57.2646,42.3138],[57.3647,42.3453],[57.407,42.3441],[57.4533,42.3044],[57.5177,42.2926],[57.614,42.2399],[57.6369,42.1946],[57.6452,42.1221],[57.6046,42.1139],[57.5978,42.0698],[57.7267,42.0088],[57.7238,41.9835],[57.6784,41.9547],[57.6802,41.9031],[57.7623,41.8896],[57.8836,41.8169]]]}},{"type":"Feature","properties":{"name":"Alakol","scalerank":4},"geometry":{"type":"Polygon","coordinates":[[[82.05,45.9536],[82.1433,45.759],[82.1166,45.7505],[82.0056,45.8341],[81.9579,45.8461],[81.7492,45.8202],[81.7298,45.8441],[81.6706,45.8682],[81.6417,45.9168],[81.5378,46.0007],[81.3936,46.0375],[81.3765,46.0569],[81.3818,46.1458],[81.4242,46.17],[81.4116,46.1873],[81.4166,46.2518],[81.3827,46.2659],[81.4166,46.2792],[81.3889,46.2956],[81.3874,46.316],[81.4113,46.3851],[81.5626,46.4826],[81.5826,46.457],[81.6394,46.4708],[81.6297,46.4434],[81.7209,46.4525],[81.7342,46.4308],[81.773,46.4299],[81.8234,46.4031],[81.8555,46.4093],[81.8549,46.3878],[81.9146,46.3613],[81.9176,46.3336],[81.9585,46.3263],[81.98,46.2494],[82.0474,46.2047],[82.0268,46.0805],[82.05,45.9536]]]}},{"type":"Feature","properties":{"name":"Lake Van","scalerank":4},"geometry":{"type":"Polygon","coordinates":[[[43.1507,38.3222],[43.0191,38.3166],[42.9944,38.3354],[42.9352,38.344],[42.9532,38.3775],[42.8978,38.4058],[42.9049,38.4329],[42.9252,38.4188],[42.939,38.4329],[42.9252,38.4535],[42.8702,38.4535],[42.8722,38.4717],[42.8911,38.4741],[42.8702,38.4944],[42.8763,38.5059],[42.8566,38.4738],[42.8019,38.4815],[42.798,38.4564],[42.7739,38.4402],[42.6918,38.4388],[42.6632,38.4723],[42.5988,38.4856],[42.5758,38.5079],[42.5013,38.4712],[42.4748,38.4841],[42.4572,38.5168],[42.3279,38.4873],[42.3082,38.4876],[42.2997,38.5077],[42.3497,38.5286],[42.3909,38.5771],[42.4201,38.5812],[42.4107,38.618],[42.494,38.6248],[42.4354,38.7037],[42.4678,38.7367],[42.7333,38.8035],[42.8098,38.7855],[42.9164,38.7967],[42.9564,38.7844],[43.0924,38.8041],[43.1757,38.8444],[43.2069,38.8918],[43.1374,38.9059],[43.1101,38.878],[43.1439,38.8803],[43.1478,38.8653],[43.1295,38.8518],[43.0971,38.8582],[43.0721,38.893],[43.0721,38.9309],[43.1619,38.948],[43.2034,38.9401],[43.2711,38.9624],[43.3155,38.9542],[43.3088,38.981],[43.3506,38.9674],[43.3535,38.9848],[43.4015,39.0016],[43.5902,38.981],[43.6591,38.9468],[43.6446,38.9401],[43.6591,38.9327],[43.5348,38.9133],[43.5013,38.8712],[43.4289,38.8588],[43.39,38.8226],[43.3391,38.8459],[43.3088,38.8356],[43.292,38.7791],[43.2196,38.7549],[43.156,38.6375],[43.083,38.6119],[43.1907,38.6207],[43.2166,38.5868],[43.3161,38.5424],[43.3253,38.4865],[43.3064,38.4397],[43.2673,38.4402],[43.1625,38.3828],[43.1475,38.3655],[43.1507,38.3222]]]}},{"type":"Feature","properties":{"name":"Lake Hammar","scalerank":5},"geometry":{"type":"MultiPolygon","coordinates":[[[[46.6872,30.7506],[46.7699,30.7506],[46.7561,30.7438],[46.7622,30.7241],[46.6872,30.7506]]],[[[47.6244,30.7046],[47.6333,30.6826],[47.5408,30.662],[47.5302,30.6761],[47.4755,30.6481],[47.4278,30.6481],[47.4043,30.6578],[47.3889,30.7002],[47.1908,30.7097],[47.0919,30.7376],[47.1049,30.7553],[47.0955,30.7644],[47.0054,30.7417],[46.9904,30.7329],[47.0027,30.7241],[46.9851,30.7197],[46.9683,30.7303],[46.9821,30.7506],[46.9345,30.7582],[46.9268,30.7924],[46.9083,30.7974],[46.845,30.7644],[46.9065,30.7438],[46.91,30.7294],[46.8585,30.7097],[46.8285,30.715],[46.7902,30.7438],[46.8517,30.7847],[46.7967,30.7847],[46.7829,30.7991],[46.804,30.8271],[46.716,30.8103],[46.6942,30.8194],[46.7352,30.8468],[46.6804,30.8886],[46.7749,30.9042],[46.7967,30.929],[46.7899,30.9081],[46.8043,30.8954],[46.807,30.9242],[46.8311,30.9322],[46.8453,30.9113],[46.9003,30.9151],[46.9003,30.8816],[46.9065,30.9022],[46.9683,30.8742],[46.9615,30.8607],[47.0236,30.8127],[47.0437,30.8071],[47.0887,30.8401],[47.1131,30.8371],[47.1223,30.8306],[47.0919,30.8194],[47.1923,30.8094],[47.2218,30.7785],[47.2059,30.7735],[47.2076,30.7576],[47.3121,30.7441],[47.3407,30.75],[47.4037,30.8194],[47.5035,30.8127],[47.5146,30.7991],[47.4826,30.7759],[47.3795,30.7582],[47.3981,30.7344],[47.4266,30.7303],[47.4985,30.7447],[47.5821,30.7356],[47.5991,30.7241],[47.5717,30.7303],[47.5818,30.7167],[47.6244,30.7046]]]]}},{"type":"Feature","properties":{"name":"Khyargas Nuur","scalerank":5},"geometry":{"type":"MultiPolygon","coordinates":[[[[92.9156,49.3291],[92.9165,49.3291],[92.9165,49.329],[92.9156,49.3291]]],[[[93.8066,49.1572],[93.8119,49.1215],[93.7863,49.1021],[93.5803,49.0338],[93.4787,49.0362],[93.4296,49.0064],[93.4296,48.9791],[93.368,48.9517],[93.3348,48.9835],[93.3159,49.0627],[93.2812,49.1095],[93.1367,49.1068],[93.0807,49.1636],[92.87,49.2104],[92.8267,49.2331],[92.8064,49.267],[92.8152,49.2946],[92.8791,49.327],[92.9518,49.3252],[92.9907,49.3082],[93.1358,49.3397],[93.1923,49.3011],[93.3689,49.2728],[93.424,49.2372],[93.4431,49.1845],[93.4587,49.211],[93.4858,49.2196],[93.5885,49.206],[93.6565,49.1436],[93.6356,49.2057],[93.6586,49.2187],[93.8066,49.1572]]]]}},{"type":"Feature","properties":{"name":"Lake Assal","scalerank":5},"geometry":{"type":"Polygon","coordinates":[[[42.4489,11.6746],[42.4113,11.6246],[42.3845,11.6923],[42.4221,11.7111],[42.4489,11.6746]]]}},{"type":"Feature","properties":{"name":"Barsakelmes Lake","scalerank":6},"geometry":{"type":"Polygon","coordinates":[[[59.5917,46.2091],[59.5041,46.3188],[59.5703,46.3239],[59.5895,46.3041],[59.7308,46.3217],[59.7595,46.3092],[59.8008,46.2569],[59.8133,46.1237],[59.7287,46.0828],[59.5917,46.2091]]]}}]}