{"type":"FeatureCollection","features":[{"type":"Feature","properties":{"scalerank":0},"geometry":{"type":"MultiPolygon","coordinates":[[[[101.0,12.6514],[100.9745,12.598],[100.9261,12.6191],[100.9408,12.6364],[100.9177,12.6626],[100.8579,12.6527],[100.8714,12.6738],[100.8511,12.6738],[100.8646,12.7011],[100.8374,12.7079],[100.8679,12.7711],[100.8921,12.7625],[100.9199,12.8109],[100.8646,12.9196],[100.8921,12.9481],[100.8996,12.9822],[100.9284,12.9925],[100.9331,13.0264],[100.8783,13.0983],[100.9452,13.2009],[100.9124,13.2939],[100.9324,13.3381],[100.9813,13.359],[100.9851,13.4177],[100.9709,13.4372],[100.9958,13.4962],[100.9634,13.4714],[100.8889,13.4682],[100.6799,13.5092],[100.5921,13.5545],[100.5978,13.6122],[100.5842,13.5337],[100.5559,13.5109],[100.3372,13.4819],[100.2751,13.5167],[100.2533,13.4858],[100.0531,13.413],[100.0217,13.3666],[100.0013,13.372],[100.0156,13.3659],[100.0062,13.3328],[99.9627,13.3099],[99.9671,13.259],[100.074,13.1528],[100.1043,13.0573],[100.053,12.9661],[100.0239,12.8471],[99.9876,12.7905],[99.9605,12.6679],[99.9808,12.4547],[100.0122,12.3687],[99.9828,12.2705],[100.0093,12.2411],[100.02,12.1927],[99.9553,12.0725],[99.8312,11.9247],[99.8233,11.8786],[99.8369,11.8435],[99.8098,11.8246],[99.8171,11.7414],[99.7804,11.7372],[99.7518,11.7099],[99.6419,11.5233],[99.6257,11.4405],[99.5693,11.334],[99.5663,11.2763],[99.5862,11.1951],[99.5693,11.1791],[99.562,11.1989],[99.5286,11.1868],[99.4963,11.1329],[99.5153,11.0392],[99.4942,10.9675],[99.5116,10.8664],[99.4942,10.8781],[99.4432,10.8703],[99.4351,10.8018],[99.375,10.712],[99.3744,10.6814],[99.3132,10.6474],[99.2883,10.5629],[99.2404,10.5219],[99.2683,10.5082],[99.2404,10.457],[99.2887,10.412],[99.285,10.3645],[99.2341,10.3437],[99.2,10.3785],[99.1607,10.368],[99.1514,10.3463],[99.169,10.2877],[99.2246,10.2324],[99.2546,10.2344],[99.2417,10.2145],[99.2013,10.2106],[99.1516,10.1035],[99.1789,10.0253],[99.1585,9.9905],[99.1721,9.8502],[99.1516,9.8292],[99.1448,9.7882],[99.1729,9.6652],[99.2121,9.5977],[99.2232,9.5426],[99.3236,9.3915],[99.2908,9.3901],[99.2355,9.3363],[99.2341,9.2783],[99.2551,9.2325],[99.3508,9.2192],[99.3782,9.1929],[99.4439,9.196],[99.5017,9.2203],[99.5358,9.2817],[99.6101,9.278],[99.6895,9.3159],[99.7395,9.3205],[99.7816,9.3084],[99.8034,9.3227],[99.8535,9.2947],[99.8596,9.2578],[99.8778,9.2265],[99.886,9.2333],[99.8865,9.1579],[99.9194,9.0865],[99.9331,9.0006],[99.9194,8.98],[99.9263,8.8633],[99.9671,8.6057],[100.0408,8.5456],[100.0985,8.4265],[100.1442,8.3888],[100.1863,8.3972],[100.1648,8.5014],[100.1311,8.5146],[100.1506,8.5229],[100.1808,8.5012],[100.2205,8.4487],[100.2715,8.3171],[100.4402,7.477],[100.574,7.195],[100.5481,7.197],[100.4724,7.2589],[100.4255,7.2676],[100.439,7.2941],[100.4223,7.37],[100.4081,7.3787],[100.406,7.5277],[100.3895,7.5662],[100.3256,7.5745],[100.2896,7.5182],[100.2726,7.5311],[100.2756,7.577],[100.3235,7.6164],[100.327,7.6552],[100.307,7.7579],[100.2697,7.7954],[100.2106,7.7809],[100.1448,7.7194],[100.1546,7.6158],[100.1854,7.5142],[100.2251,7.4795],[100.2788,7.3622],[100.303,7.3427],[100.3701,7.3327],[100.3849,7.2663],[100.4269,7.2453],[100.3923,7.2226],[100.4366,7.1601],[100.4948,7.1366],[100.5559,7.1447],[100.5886,7.1796],[100.5854,7.2244],[100.7651,6.9831],[100.8273,6.9517],[100.8499,6.9621],[100.9481,6.8807],[101.0,6.8566],[101.0,4.0],[100.8087,4.0],[100.8346,4.0185],[100.8714,4.0189],[100.8615,4.0404],[100.7776,4.0214],[100.7659,4.0998],[100.6777,4.1652],[100.6326,4.1555],[100.6152,4.2517],[100.5654,4.3192],[100.6455,4.56],[100.5973,4.5719],[100.5944,4.6109],[100.617,4.6383],[100.6326,4.6291],[100.6662,4.6699],[100.6042,4.6658],[100.5945,4.7431],[100.6326,4.7581],[100.6121,4.7724],[100.6174,4.7929],[100.5762,4.7993],[100.5774,4.8543],[100.5501,4.8754],[100.4944,4.8723],[100.5153,4.8891],[100.511,4.9069],[100.4817,4.9247],[100.4539,4.9089],[100.4416,4.9228],[100.3645,5.0843],[100.409,5.1267],[100.4309,5.1906],[100.419,5.2485],[100.4333,5.29],[100.3802,5.3907],[100.3849,5.4993],[100.3508,5.5842],[100.344,5.6693],[100.3763,5.6633],[100.3864,5.6791],[100.3645,5.6941],[100.3757,5.8109],[100.3491,6.0127],[100.2479,6.2208],[100.2,6.259],[100.1528,6.3339],[100.12,6.4631],[100.0901,6.4848],[100.1035,6.5332],[100.0806,6.5368],[100.0633,6.5066],[100.0013,6.5675],[99.9912,6.5978],[99.9641,6.5937],[99.974,6.6227],[99.9609,6.6605],[99.9373,6.6647],[99.8675,6.7626],[99.8517,6.7764],[99.8249,6.7696],[99.7972,6.8217],[99.6858,6.8773],[99.6904,6.9355],[99.7139,6.9422],[99.6809,6.9736],[99.6792,7.0268],[99.7481,7.126],[99.7406,7.1371],[99.6929,7.1161],[99.6776,7.1233],[99.6724,7.1707],[99.6141,7.1367],[99.5579,7.1975],[99.5454,7.2663],[99.5852,7.3067],[99.6035,7.3762],[99.5496,7.3018],[99.5247,7.3113],[99.5254,7.37],[99.5081,7.385],[99.491,7.351],[99.4883,7.2857],[99.4707,7.28],[99.3782,7.3209],[99.3366,7.3836],[99.3474,7.4235],[99.3298,7.5034],[99.2956,7.5071],[99.3088,7.5283],[99.2927,7.6207],[99.2498,7.6278],[99.2557,7.6574],[99.1531,7.7307],[99.1305,7.7672],[99.1122,7.7055],[99.0915,7.6918],[99.056,7.6989],[99.0332,7.7228],[99.0144,7.815],[99.0623,7.8594],[99.0696,7.9249],[99.0281,7.9038],[99.0003,7.9426],[98.9678,7.9562],[98.9605,8.0068],[98.918,8.0513],[98.8436,8.0029],[98.8003,8.0524],[98.7703,8.0237],[98.7474,8.0683],[98.7442,8.2149],[98.7271,8.2539],[98.7066,8.2259],[98.7031,8.2985],[98.6963,8.3085],[98.624,8.2812],[98.6262,8.3461],[98.6554,8.3796],[98.6035,8.3972],[98.5989,8.3749],[98.5261,8.3363],[98.4937,8.3432],[98.4867,8.3249],[98.4663,8.3358],[98.4663,8.3227],[98.4282,8.317],[98.4222,8.3063],[98.4531,8.294],[98.4629,8.2161],[98.425,8.1484],[98.4055,8.1645],[98.3913,8.1365],[98.3569,8.185],[98.2814,8.2259],[98.2776,8.2835],[98.1995,8.5344],[98.2097,8.5815],[98.2473,8.5146],[98.2531,8.5347],[98.22,8.5692],[98.2405,8.6511],[98.22,8.7262],[98.2507,8.76],[98.2616,8.8507],[98.3249,8.9752],[98.364,8.9739],[98.3581,8.996],[98.3913,9.0353],[98.3327,9.0261],[98.3298,9.0521],[98.382,9.0719],[98.3284,9.1644],[98.3223,9.2094],[98.3397,9.1998],[98.3708,9.2265],[98.3519,9.2514],[98.4572,9.5485],[98.4868,9.5281],[98.5311,9.5661],[98.4634,9.6044],[98.5142,9.6547],[98.4937,9.6857],[98.5132,9.6949],[98.4937,9.7137],[98.544,9.7065],[98.5658,9.7426],[98.521,9.7546],[98.508,9.7404],[98.508,9.7746],[98.5554,9.798],[98.583,9.8428],[98.549,9.8093],[98.5127,9.8369],[98.549,9.8837],[98.5762,9.8776],[98.5899,9.9055],[98.5716,9.9155],[98.592,9.9427],[98.6309,9.9527],[98.5996,9.9739],[98.6035,9.9936],[98.6623,10.0853],[98.7463,10.329],[98.7474,10.3505],[98.7189,10.3126],[98.6961,10.2237],[98.5431,9.9875],[98.521,10.029],[98.5139,10.1469],[98.4896,10.1979],[98.5285,10.3642],[98.4942,10.4525],[98.4955,10.5569],[98.4634,10.63],[98.4593,10.7154],[98.4636,10.7294],[98.4983,10.7316],[98.5285,10.6931],[98.5383,10.7187],[98.521,10.741],[98.5437,10.7451],[98.5632,10.7273],[98.5999,10.8055],[98.5967,10.8371],[98.6309,10.8508],[98.5864,10.861],[98.5816,10.882],[98.648,10.9191],[98.6731,10.9055],[98.7124,10.9244],[98.7202,10.9805],[98.6929,11.0084],[98.7224,11.0449],[98.7066,11.0978],[98.6763,11.1006],[98.6582,11.132],[98.7241,11.1562],[98.7593,11.2689],[98.7219,11.3501],[98.7271,11.3852],[98.698,11.388],[98.7153,11.4432],[98.7749,11.4535],[98.7544,11.5224],[98.7289,11.5176],[98.7179,11.5319],[98.7356,11.642],[98.7522,11.6817],[98.8171,11.6774],[98.8226,11.708],[98.8916,11.6937],[98.8767,11.7226],[98.8049,11.7365],[98.783,11.7551],[98.8257,11.8259],[98.8089,11.8513],[98.8161,11.8338],[98.7681,11.7619],[98.7442,11.7625],[98.7122,11.7365],[98.7031,11.6975],[98.6742,11.6852],[98.6104,11.7313],[98.606,11.7692],[98.6321,11.7929],[98.6035,11.8036],[98.624,11.8303],[98.6514,11.8303],[98.6809,11.8773],[98.7066,11.8786],[98.6941,11.8929],[98.549,11.8786],[98.5781,11.9067],[98.6641,11.9204],[98.6909,11.9543],[98.7202,11.9643],[98.7214,11.9978],[98.7031,12.0481],[98.7127,12.0636],[98.665,12.0602],[98.6338,12.0903],[98.6296,12.132],[98.7097,12.2043],[98.7033,12.2378],[98.6629,12.2368],[98.5967,12.194],[98.5632,12.2077],[98.5391,12.2418],[98.5684,12.2909],[98.6768,12.3153],[98.7066,12.3479],[98.6052,12.4289],[98.6162,12.4857],[98.7014,12.4987],[98.7097,12.5124],[98.64,12.5319],[98.6231,12.5582],[98.6514,12.6223],[98.6731,12.6254],[98.6677,12.6748],[98.6929,12.7253],[98.6484,12.7233],[98.6445,12.742],[98.6787,12.7563],[98.6178,12.7663],[98.6514,12.7973],[98.6343,12.8786],[98.5899,12.9196],[98.614,12.9543],[98.5838,13.0266],[98.5785,13.1868],[98.5005,13.2492],[98.4899,13.2978],[98.48,13.2839],[98.4605,13.3558],[98.4732,13.413],[98.4528,13.3795],[98.4453,13.4243],[98.4186,13.4546],[98.4264,13.4901],[98.3361,13.5986],[98.2883,13.6948],[98.302,13.701],[98.2448,13.7141],[98.2542,13.8518],[98.2337,13.9173],[98.2337,14.0026],[98.1921,14.0647],[98.179,14.0197],[98.1995,13.9927],[98.1983,13.9649],[98.1802,13.925],[98.1995,13.8692],[98.1795,13.7324],[98.1961,13.6684],[98.1685,13.5843],[98.1869,13.5439],[98.1711,13.5378],[98.1511,13.5576],[98.1443,13.5371],[98.1297,13.5823],[98.1511,13.606],[98.1375,13.6265],[98.1585,13.6423],[98.1511,13.6737],[98.1688,13.6808],[98.1033,13.701],[98.117,13.7289],[98.0921,13.7397],[98.0828,13.77],[98.0889,13.7951],[98.1101,13.7904],[98.1108,13.9022],[98.0823,13.9245],[98.0617,14.0101],[98.1077,14.11],[98.0964,14.1678],[98.1101,14.1678],[98.0418,14.2429],[97.9935,14.3305],[97.9797,14.3974],[98.0003,14.4687],[97.9661,14.4483],[97.9136,14.5867],[97.9251,14.6128],[97.8855,14.656],[97.8855,14.6841],[97.9041,14.709],[97.9431,14.7202],[97.9924,14.6637],[98.0276,14.6475],[97.9822,14.7153],[98.0003,14.7221],[97.9646,14.7471],[97.9729,14.7636],[97.9499,14.7989],[97.9312,14.7522],[97.8972,14.7978],[97.9022,14.7377],[97.8755,14.7167],[97.8504,14.7236],[97.7948,14.8803],[97.8128,14.9833],[97.7743,15.0175],[97.8084,15.0312],[97.7948,15.0585],[97.8228,15.2093],[97.7694,15.2233],[97.7264,15.3396],[97.7608,15.3942],[97.7948,15.4079],[97.7614,15.4905],[97.7743,15.5314],[97.7429,15.6045],[97.7437,15.6649],[97.7256,15.7013],[97.7339,15.7263],[97.7129,15.7573],[97.7271,15.8432],[97.7061,15.8603],[97.7122,15.8877],[97.6914,15.9123],[97.5757,16.0174],[97.5689,16.0624],[97.6196,16.1254],[97.6509,16.2713],[97.6231,16.3945],[97.6372,16.4774],[97.6738,16.5334],[97.7402,16.5593],[97.7129,16.5798],[97.6304,16.532],[97.4231,16.5234],[97.3703,16.4835],[97.3298,16.6798],[97.3112,16.6524],[97.2858,16.6589],[97.2554,16.6979],[97.2302,16.7691],[97.2405,16.8746],[97.2195,16.8262],[97.2046,16.8598],[97.2195,16.9013],[97.1916,16.9013],[97.1833,16.9215],[97.1983,17.0135],[97.1572,17.0869],[97.1745,17.1125],[97.2337,17.0952],[97.261,17.1073],[97.2026,17.1316],[97.1581,17.1293],[97.1306,17.0794],[97.1003,17.1338],[97.1096,17.1893],[97.0887,17.1935],[97.0686,17.2514],[97.0072,17.2781],[97.0134,17.2991],[96.8955,17.3847],[96.8831,17.4574],[96.8557,17.3885],[96.8421,17.409],[96.8215,17.3947],[96.9107,17.3171],[96.9109,17.2849],[96.8494,17.213],[96.8557,17.1688],[96.9102,17.0668],[96.9109,17.0248],[96.8791,16.9347],[96.8352,16.936],[96.8557,16.9013],[96.8079,16.9087],[96.844,16.8739],[96.8467,16.8449],[96.8113,16.7647],[96.7894,16.7561],[96.801,16.7374],[96.7163,16.6584],[96.6795,16.5749],[96.6159,16.518],[96.4363,16.4778],[96.3571,16.5185],[96.266,16.5968],[96.2258,16.7613],[96.2871,16.8131],[96.2576,16.8159],[96.2066,16.7775],[96.1712,16.7716],[96.2409,16.6501],[96.2346,16.5764],[96.3364,16.4394],[96.3213,16.4153],[96.2853,16.366],[96.119,16.3218],[96.0774,16.3608],[96.0066,16.3874],[96.0666,16.3356],[96.0676,16.3102],[95.98,16.2231],[95.9424,16.2191],[95.9514,16.2576],[95.9079,16.2117],[95.8831,16.2092],[95.8899,16.244],[95.7977,16.1449],[95.7555,16.1453],[95.7249,16.2228],[95.7323,16.1273],[95.697,16.066],[95.6873,15.9882],[95.6647,15.9492],[95.5234,15.8037],[95.4158,15.723],[95.3106,15.7232],[95.2879,15.7401],[95.2826,15.8383],[95.3127,15.8665],[95.314,15.9007],[95.3386,15.922],[95.3643,15.9846],[95.3685,16.0388],[95.3455,16.105],[95.3616,16.1484],[95.3275,16.1074],[95.3486,16.0416],[95.3418,15.9839],[95.2971,15.903],[95.2516,15.8682],[95.2388,15.8939],[95.2759,15.9706],[95.273,16.0037],[95.224,15.9186],[95.2127,15.7866],[95.1736,15.7778],[95.1257,15.8176],[95.1152,15.8939],[95.1375,16.0067],[95.1289,16.0385],[95.1078,15.9839],[95.0977,16.0251],[95.138,16.1003],[95.2259,16.1199],[95.1836,16.1409],[95.1487,16.132],[95.1358,16.1484],[95.0706,16.0749],[95.0729,15.9706],[95.055,15.8461],[95.0339,15.8057],[94.9976,15.7953],[94.9756,15.7641],[94.8469,15.7906],[94.8963,15.8474],[94.8826,15.8672],[94.8532,15.8403],[94.8347,15.9492],[94.8628,15.9918],[94.9207,16.0186],[94.9241,16.0385],[94.8893,16.0174],[94.8631,16.1278],[94.9001,16.1838],[94.9592,16.2009],[94.9924,16.2508],[94.967,16.2204],[94.8931,16.2058],[94.8547,16.1602],[94.8484,16.0965],[94.8694,16.041],[94.8462,16.0],[94.7869,15.9621],[94.7212,15.8567],[94.6587,15.8545],[94.6355,15.9081],[94.6224,15.8915],[94.6013,15.9212],[94.7031,15.9824],[94.7323,16.0174],[94.7417,16.0673],[94.7937,16.162],[94.766,16.1395],[94.7053,16.0207],[94.6148,15.9437],[94.5666,15.9355],[94.5623,15.9619],[94.6423,16.0447],[94.6789,16.1213],[94.6838,16.2092],[94.6652,16.2576],[94.7049,16.3532],[94.7323,16.3607],[94.7058,16.4731],[94.7323,16.5246],[94.6973,16.5084],[94.677,16.532],[94.6838,16.3641],[94.6279,16.2602],[94.584,16.2365],[94.6355,16.3265],[94.6297,16.3442],[94.5837,16.2748],[94.5212,16.2955],[94.507,16.1896],[94.4281,16.0742],[94.3606,16.0493],[94.34,15.9962],[94.2866,15.9975],[94.2515,15.9685],[94.2395,15.9763],[94.2098,16.029],[94.2151,16.1577],[94.2378,16.2731],[94.2354,16.3484],[94.2586,16.3874],[94.2731,16.4665],[94.2683,16.5275],[94.2731,16.5382],[94.3311,16.5286],[94.3413,16.5484],[94.3462,16.5924],[94.3276,16.6064],[94.362,16.6355],[94.3644,16.7011],[94.4027,16.7883],[94.3823,16.9013],[94.4232,16.9013],[94.4647,16.9497],[94.4443,16.9497],[94.4579,17.0596],[94.4888,17.1242],[94.4857,17.141],[94.4578,17.1538],[94.4544,17.1801],[94.4647,17.1893],[94.5109,17.169],[94.5379,17.1874],[94.5086,17.2301],[94.512,17.2752],[94.5454,17.2961],[94.5462,17.3196],[94.5945,17.2923],[94.5768,17.3583],[94.5703,17.5052],[94.5539,17.5436],[94.5603,17.5821],[94.615,17.5456],[94.5907,17.5932],[94.5952,17.6155],[94.563,17.6617],[94.544,17.748],[94.5017,17.7866],[94.4834,17.9023],[94.4474,17.9733],[94.4509,18.0024],[94.4922,18.0259],[94.4949,18.0488],[94.4579,18.1557],[94.4229,18.2425],[94.3276,18.2587],[94.3311,18.3031],[94.3892,18.286],[94.417,18.314],[94.3897,18.3627],[94.3506,18.3752],[94.3311,18.426],[94.259,18.509],[94.245,18.5393],[94.2622,18.5451],[94.2488,18.6389],[94.1489,18.731],[94.2116,18.7255],[94.2793,18.7385],[94.2525,18.7521],[94.2124,18.7418],[94.1531,18.821],[94.1489,18.8682],[94.1351,18.8205],[94.1196,18.8166],[94.0381,18.8591],[94.0366,18.918],[94.0532,18.9365],[94.0412,18.9976],[94.0661,19.0429],[94.0601,19.0637],[94.0942,19.0873],[94.0466,19.0811],[94.0291,19.0954],[94.0327,19.1693],[94.0532,19.2214],[94.0459,19.3047],[94.0697,19.3509],[94.0669,19.389],[94.0252,19.2866],[94.0334,19.2045],[93.9735,19.1463],[93.9471,19.1597],[93.9373,19.2047],[93.9255,19.2103],[93.9104,19.191],[93.9554,19.1269],[93.9525,19.0321],[93.9844,18.9678],[93.9739,18.9228],[93.9373,18.8894],[93.9441,18.8682],[93.9304,18.8586],[93.8137,18.944],[93.7346,18.9812],[93.7039,19.0185],[93.6789,19.0196],[93.6423,19.1342],[93.594,19.1767],[93.4832,19.3507],[93.4909,19.4076],[93.553,19.4306],[93.568,19.4067],[93.6113,19.4033],[93.637,19.3491],[93.6213,19.3344],[93.7175,19.2934],[93.7229,19.2685],[93.7969,19.2352],[93.8342,19.2382],[93.9299,19.2997],[93.981,19.3723],[93.9911,19.4572],[93.9238,19.4624],[93.9192,19.4843],[93.9373,19.492],[93.8821,19.5019],[93.7312,19.6326],[93.7561,19.6611],[93.8001,19.6565],[93.7944,19.6736],[93.8274,19.7186],[93.8068,19.7458],[93.7839,19.6911],[93.7611,19.6749],[93.721,19.6853],[93.7095,19.7135],[93.7188,19.7436],[93.7516,19.7657],[93.7219,19.769],[93.6935,19.7248],[93.6484,19.7252],[93.6355,19.7595],[93.6014,19.7186],[93.6065,19.7961],[93.6607,19.8708],[93.738,19.8825],[93.7256,19.9056],[93.74,19.9251],[93.7175,19.9377],[93.7075,19.9166],[93.6113,19.9103],[93.5807,19.8813],[93.5467,19.9029],[93.5659,19.9166],[93.5183,19.9396],[93.5319,19.9514],[93.512,19.9704],[93.5319,19.9848],[93.5256,19.9992],[93.4922,19.965],[93.4705,19.9848],[93.457,19.9542],[93.4232,19.9653],[93.3823,20.0885],[93.3618,20.0264],[93.3407,20.1022],[93.3128,20.0654],[93.2725,20.0475],[93.1903,20.0644],[93.1763,20.0537],[93.1284,20.0947],[93.2383,19.821],[93.2014,19.8628],[93.1315,20.0066],[93.1091,19.9938],[93.1061,19.9306],[93.1345,19.8483],[93.1688,19.8073],[93.1345,19.8341],[93.0594,19.9511],[93.0384,20.0129],[92.9807,20.0779],[92.9702,20.1295],[93.0425,20.1295],[93.0801,20.1705],[93.0942,20.15],[93.1209,20.212],[93.0892,20.2104],[93.0186,20.15],[92.9905,20.1549],[93.0012,20.2393],[93.0413,20.332],[93.0913,20.381],[93.1004,20.4311],[93.0596,20.3622],[93.0432,20.3649],[93.031,20.4097],[93.0856,20.5329],[93.0733,20.5546],[93.0226,20.4525],[93.0163,20.3249],[92.8984,20.1357],[92.8604,20.1249],[92.7721,20.2015],[92.7995,20.2592],[92.864,20.3008],[92.9429,20.3212],[92.8933,20.3295],[92.8469,20.3773],[92.8269,20.4951],[92.7927,20.5063],[92.7966,20.4838],[92.7693,20.4551],[92.7586,20.4721],[92.779,20.4783],[92.751,20.4985],[92.7207,20.5922],[92.635,20.698],[92.7083,20.5787],[92.7375,20.4448],[92.7312,20.2592],[92.6532,20.4183],[92.5399,20.5275],[92.507,20.6093],[92.4536,20.6685],[92.3811,20.7001],[92.281,20.9594],[92.2651,21.0611],[92.2615,20.9403],[92.3333,20.7677],[92.3255,20.7387],[92.2097,20.9308],[92.1929,20.9957],[92.1341,21.0475],[92.0454,21.171],[92.0453,21.2995],[91.9497,21.4584],[91.9634,21.4521],[91.999,21.4995],[92.0179,21.4931],[91.99,21.562],[92.0358,21.6404],[92.0293,21.7049],[92.0007,21.6498],[91.9839,21.6501],[91.9839,21.7054],[91.9627,21.6895],[91.9497,21.716],[91.953,21.7383],[91.99,21.76],[91.9603,21.7638],[91.99,21.7948],[91.8993,21.7895],[91.9114,21.8347],[91.9294,21.8432],[91.9255,21.8629],[91.9497,21.8842],[91.9157,21.8625],[91.8552,22.1092],[91.8535,22.1436],[91.8672,22.1374],[91.8533,22.1487],[91.8399,22.1169],[91.813,22.1803],[91.8169,22.2203],[91.8399,22.2466],[91.8088,22.3063],[91.874,22.336],[91.9081,22.4247],[91.8877,22.4247],[91.8775,22.3633],[91.7914,22.3019],[91.8263,22.2678],[91.8259,22.2485],[91.7871,22.2379],[91.7437,22.4111],[91.676,22.5346],[91.5481,22.7003],[91.4624,22.7619],[91.4583,22.7971],[91.4905,22.9045],[91.4624,22.8334],[91.4168,22.8],[91.4147,22.7537],[91.3464,22.7748],[91.3674,22.7617],[91.3601,22.7434],[91.2908,22.7384],[91.3328,22.7202],[91.3174,22.6972],[91.2448,22.6984],[91.2434,22.7202],[91.1819,22.7265],[91.1992,22.6988],[91.169,22.6849],[91.2534,22.6607],[91.2645,22.6408],[91.2416,22.5754],[91.2027,22.5432],[91.1273,22.527],[91.0892,22.5444],[91.0183,22.6831],[91.0038,22.6787],[91.0322,22.6369],[91.0379,22.5886],[90.9851,22.5744],[90.9417,22.5859],[90.8765,22.6828],[90.8359,22.6849],[90.8195,22.7265],[90.7949,22.7414],[90.7175,22.9406],[90.6294,23.0644],[90.6401,23.1889],[90.6673,23.2676],[90.6509,23.3002],[90.6611,23.3223],[90.6284,23.3215],[90.6113,23.3425],[90.6003,23.4499],[90.6333,23.4868],[90.715,23.4984],[90.7112,23.5488],[90.6755,23.5509],[90.7022,23.5284],[90.6953,23.5079],[90.6668,23.5182],[90.6078,23.4911],[90.5921,23.5625],[90.6333,23.5966],[90.6271,23.6035],[90.5588,23.5904],[90.5645,23.5764],[90.5472,23.5638],[90.4763,23.583],[90.4984,23.5573],[90.5768,23.5395],[90.5789,23.4499],[90.5519,23.385],[90.3224,23.4333],[90.2503,23.4669],[90.2494,23.4554],[90.3885,23.3724],[90.4285,23.3261],[90.5691,23.295],[90.6066,23.2472],[90.6145,23.1955],[90.5935,23.2199],[90.5991,23.1175],[90.572,23.0817],[90.5537,23.0786],[90.5588,23.1107],[90.5228,23.0801],[90.4536,23.0723],[90.4489,23.0557],[90.5104,22.9182],[90.54,22.8966],[90.52,22.8802],[90.4763,22.8841],[90.436,22.8006],[90.408,22.7947],[90.4199,22.7683],[90.3943,22.7748],[90.3726,22.7614],[90.4352,22.7333],[90.4446,22.7517],[90.4617,22.7488],[90.4899,22.7202],[90.5127,22.6115],[90.4592,22.5793],[90.4421,22.4936],[90.4725,22.5756],[90.5051,22.5862],[90.5597,22.5623],[90.6066,22.4658],[90.5862,22.4732],[90.6184,22.3767],[90.6135,22.3149],[90.558,22.2034],[90.5011,22.1767],[90.4386,22.076],[90.3875,22.1026],[90.4216,22.1989],[90.4109,22.2842],[90.3943,22.2882],[90.3909,22.2088],[90.4129,22.178],[90.3801,22.1436],[90.3699,22.0898],[90.3086,21.984],[90.2829,21.8708],[90.2176,21.8135],[90.1848,21.801],[90.0929,21.8303],[90.0954,21.8594],[90.1125,21.8563],[90.1262,21.932],[90.0985,21.8786],[90.0669,21.8534],[90.0244,21.8625],[90.0449,21.9661],[90.0772,21.988],[90.1056,22.0543],[90.1641,22.1132],[90.2162,22.1232],[90.2361,22.1989],[90.2058,22.133],[90.1483,22.1108],[90.0524,21.989],[89.9963,22.0002],[90.0108,22.0412],[90.0354,22.0598],[90.0427,22.1313],[90.0784,22.164],[90.0526,22.1555],[90.0244,22.089],[89.9828,22.0446],[89.9828,21.9866],[89.9678,21.9746],[89.9344,21.9977],[89.9175,22.0499],[89.9009,22.202],[89.8768,22.2747],[89.9002,22.3339],[90.0101,22.4902],[89.9474,22.4397],[89.9204,22.3918],[89.8729,22.4186],[89.8804,22.3422],[89.8387,22.2678],[89.8613,22.211],[89.8713,22.0919],[89.8462,22.0706],[89.7972,22.076],[89.8479,22.0339],[89.8462,21.9723],[89.8872,21.9001],[89.8804,21.8842],[89.7864,21.8289],[89.7659,21.8467],[89.7092,21.8301],[89.6613,21.8494],[89.6633,21.8963],[89.647,21.9251],[89.619,21.8699],[89.7007,21.7849],[89.6682,21.7509],[89.5955,21.76],[89.606,21.7191],[89.5869,21.7008],[89.5371,21.7538],[89.5274,21.8128],[89.5645,21.8842],[89.5713,22.0312],[89.606,22.1132],[89.5672,22.2028],[89.606,22.2569],[89.6265,22.336],[89.5808,22.2772],[89.5862,22.2454],[89.5492,22.2053],[89.5794,22.1132],[89.5514,21.994],[89.5329,21.9847],[89.5234,22.0446],[89.5371,22.089],[89.492,22.1884],[89.493,22.2735],[89.4758,22.2951],[89.4758,22.1026],[89.4942,22.1369],[89.5183,22.081],[89.4904,22.024],[89.5218,21.9623],[89.5125,21.9091],[89.4646,21.8592],[89.4658,21.7813],[89.4064,21.7174],[89.3643,21.7582],[89.387,21.9012],[89.3522,21.9723],[89.356,21.8925],[89.3013,21.8094],[89.2839,21.8221],[89.2947,21.7578],[89.2737,21.6988],[89.2975,21.6781],[89.2487,21.6459],[89.2105,21.6541],[89.2207,21.7094],[89.1877,21.8115],[89.1546,21.7869],[89.1047,21.8159],[89.0778,21.9143],[89.0915,22.0002],[89.0574,22.0651],[89.0603,22.1306],[89.0437,22.1374],[89.0369,22.0856],[89.0574,22.0312],[89.0609,21.9385],[89.013,21.9294],[89.0095,21.9046],[88.9447,21.9388],[88.9287,21.9866],[88.905,21.9694],[88.9241,21.9263],[88.9959,21.8842],[89.0159,21.8533],[89.0437,21.7333],[89.0852,21.6747],[89.0827,21.6173],[89.0532,21.6098],[89.0339,21.6332],[89.0198,21.6061],[89.0003,21.6034],[88.8916,21.6535],[88.8587,21.7668],[88.8382,21.702],[88.8587,21.6365],[88.8442,21.6222],[88.8058,21.6229],[88.8109,21.6917],[88.7771,21.6435],[88.7905,21.5683],[88.7279,21.5599],[88.7075,21.5783],[88.7222,21.6092],[88.6849,21.6972],[88.717,21.952],[88.763,22.0173],[88.7085,22.0722],[88.763,22.1306],[88.7266,22.1212],[88.6948,22.0815],[88.6995,22.0532],[88.7307,22.0372],[88.69,21.946],[88.6309,21.9455],[88.6275,21.9704],[88.6535,22.018],[88.6395,22.1095],[88.6831,22.185],[88.6799,22.2044],[88.6602,22.205],[88.6192,22.1095],[88.626,22.048],[88.6025,22.0064],[88.5984,21.9293],[88.5671,21.8508],[88.5646,21.7668],[88.624,21.778],[88.6328,21.7501],[88.6126,21.6975],[88.5918,21.7054],[88.5996,21.6373],[88.5951,21.6121],[88.5781,21.6234],[88.5723,21.5579],[88.5365,21.5751],[88.5296,21.5534],[88.544,21.5341],[88.513,21.5246],[88.488,21.5565],[88.5296,21.6576],[88.5049,21.7415],[88.5329,21.7953],[88.531,21.8241],[88.4956,21.8767],[88.515,21.9372],[88.4956,21.9518],[88.4745,21.8903],[88.4935,21.8052],[88.4745,21.801],[88.4534,21.7418],[88.4722,21.6633],[88.4563,21.624],[88.3931,21.6002],[88.3926,21.6986],[88.3557,21.685],[88.3312,21.7191],[88.3247,21.7014],[88.3488,21.6503],[88.3355,21.6158],[88.3097,21.6102],[88.2982,21.7641],[88.2616,21.7987],[88.2954,21.6766],[88.2834,21.6092],[88.3058,21.5717],[88.2544,21.5547],[88.2375,21.6017],[88.2244,21.613],[88.2083,21.603],[88.1819,21.6652],[88.2097,21.7886],[88.1541,21.8881],[88.1467,21.9592],[88.2224,22.0779],[88.198,22.1678],[88.0813,22.2174],[88.0773,22.2404],[88.0435,22.2248],[88.009,22.2404],[87.9727,22.2832],[87.9404,22.413],[87.9066,22.4247],[87.9653,22.2448],[88.0085,22.2049],[88.1326,22.1791],[88.161,22.1566],[88.1735,22.1169],[88.1643,22.0898],[88.1112,22.0349],[88.0431,22.0173],[88.0508,21.985],[87.9837,21.8542],[87.834,21.7293],[87.7038,21.6555],[87.6213,21.6506],[87.4688,21.6114],[87.3418,21.5624],[87.2009,21.552],[87.0637,21.475],[86.9177,21.3274],[86.867,21.256],[86.8372,21.1747],[86.844,21.0822],[86.9657,20.806],[86.9539,20.7806],[86.8788,20.7806],[86.9107,20.7564],[86.9866,20.7519],[86.9987,20.7111],[86.9402,20.698],[86.9949,20.6707],[87.0432,20.698],[87.0036,20.6571],[86.9232,20.6217],[86.7515,20.4892],[86.7246,20.432],[86.7205,20.3685],[86.7698,20.4007],[86.7887,20.3901],[86.7962,20.4373],[86.8098,20.4151],[86.7683,20.3435],[86.6937,20.2939],[86.7017,20.2847],[86.7546,20.3144],[86.6282,20.2353],[86.4951,20.1841],[86.4671,20.0947],[86.3914,20.0202],[86.4263,19.9992],[86.3972,19.9829],[86.2754,20.0674],[86.2092,20.0666],[86.1525,20.1431],[86.145,20.122],[86.1677,20.0729],[86.2302,20.0353],[86.2891,20.0264],[86.315,19.9869],[86.3724,19.965],[86.089,19.8442],[86.0567,19.8569],[85.7888,19.7657],[85.7344,19.7636],[85.4805,19.6663],[85.4499,19.6667],[85.427,19.7041],[85.522,19.7391],[85.515,19.7111],[85.5765,19.7458],[85.5632,19.7569],[85.5703,19.8756],[85.4768,19.901],[85.4401,19.8962],[85.3196,19.7936],[85.2681,19.78],[85.221,19.736],[85.2066,19.6838],[85.1401,19.5966],[85.1514,19.5603],[85.1029,19.5296],[85.1087,19.5068],[85.124,19.5194],[85.1288,19.5095],[85.124,19.4783],[85.2029,19.5172],[85.1992,19.5541],[85.2332,19.5541],[85.193,19.5808],[85.2476,19.6087],[85.2332,19.6326],[85.2476,19.6565],[85.3091,19.6422],[85.3914,19.6906],[85.4053,19.6459],[85.3779,19.6149],[85.3368,19.5961],[85.3184,19.6195],[85.3091,19.595],[85.2884,19.6013],[85.3029,19.5739],[85.3306,19.5764],[85.5765,19.6906],[85.3367,19.5752],[85.1804,19.475],[84.8721,19.2199],[84.791,19.1206],[84.7752,19.1153],[84.7388,19.1476],[84.72,19.1016],[84.7405,19.0737],[84.761,19.1016],[84.78,19.0971],[84.7411,19.0281],[84.665,18.9301],[84.6309,18.9157],[84.5418,18.7758],[84.4237,18.6365],[84.3329,18.5537],[84.2817,18.5256],[84.2469,18.5256],[84.2376,18.5109],[84.271,18.5002],[84.3499,18.5529],[84.1439,18.3748],[84.1131,18.2983],[83.7752,18.1396],[83.6139,18.0452],[83.4729,17.9025],[83.4519,17.9229],[83.453,17.8685],[83.3413,17.7174],[83.2986,17.6901],[83.2682,17.7175],[83.2469,17.7163],[83.2493,17.6954],[83.2991,17.6643],[83.2469,17.6342],[83.2129,17.6349],[83.2389,17.593],[83.0882,17.5307],[82.8968,17.4093],[82.8833,17.4221],[82.7185,17.3486],[82.4749,17.206],[82.4229,17.14],[82.3877,17.1269],[82.2993,17.0303],[82.2527,16.9292],[82.2679,16.8675],[82.3142,16.8466],[82.3521,16.8454],[82.3625,16.8591],[82.3489,16.9565],[82.3665,16.9086],[82.3656,16.8116],[82.3381,16.6784],[82.3128,16.6081],[82.2809,16.6208],[82.3074,16.5798],[82.259,16.5655],[82.2035,16.5127],[82.0686,16.4443],[82.0374,16.4477],[81.9927,16.4084],[81.8617,16.3754],[81.763,16.3226],[81.7116,16.3122],[81.6563,16.3373],[81.585,16.3421],[81.557,16.373],[81.5402,16.3737],[81.5491,16.3524],[81.4959,16.3607],[81.4167,16.3402],[81.4282,16.3657],[81.4114,16.3825],[81.3174,16.3675],[81.2596,16.3327],[81.2542,16.2713],[81.2303,16.2436],[81.156,16.0385],[81.1497,15.9696],[80.9989,15.8467],[81.0125,15.7778],[80.91,15.8527],[80.8965,16.0311],[80.889,16.0037],[80.8753,16.0174],[80.8913,15.9783],[80.8901,15.8953],[80.8071,15.7164],[80.8027,15.8424],[80.7761,15.8843],[80.6702,15.9077],[80.6629,15.8894],[80.5711,15.8687],[80.5539,15.8808],[80.3933,15.797],[80.2796,15.7007],[80.2013,15.5183],[80.2112,15.4966],[80.1268,15.3881],[80.0906,15.3049],[80.053,15.0926],[80.1082,14.7143],[80.1598,14.6627],[80.1785,14.6058],[80.1419,14.5712],[80.197,14.565],[80.176,14.4687],[80.175,14.3445],[80.1282,14.2565],[80.0872,14.2503],[80.0466,14.2066],[80.0735,14.2019],[80.1211,14.242],[80.1356,14.2292],[80.1258,14.1485],[80.1497,14.0277],[80.2493,13.8003],[80.221,13.697],[80.3137,13.4409],[80.2455,13.5917],[80.1419,13.7289],[80.1356,13.6191],[80.1213,13.6273],[80.1178,13.6745],[80.094,13.6948],[80.0913,13.6591],[80.053,13.6191],[80.1194,13.5007],[80.2659,13.4682],[80.2624,13.4512],[80.3069,13.413],[80.327,13.4304],[80.3478,13.3491],[80.3342,13.2429],[80.3198,13.2492],[80.3137,13.215],[80.3342,13.2212],[80.3328,13.1981],[80.3069,13.1461],[80.3137,13.1058],[80.2858,13.0676],[80.2517,12.7625],[80.1797,12.5326],[80.096,12.3622],[80.0051,12.256],[79.9439,12.2178],[80.0051,12.2418],[79.8618,12.022],[79.8618,11.978],[79.7859,11.7692],[79.752,11.577],[79.786,11.4262],[79.793,11.4535],[79.8167,11.4431],[79.8193,11.3815],[79.7498,11.3737],[79.6763,11.2965],[79.7593,11.3583],[79.833,11.342],[79.8553,11.1599],[79.8407,10.9501],[79.8567,10.2933],[79.7951,10.2692],[79.7571,10.3091],[79.6331,10.3286],[79.6141,10.3096],[79.759,10.2822],[79.7737,10.2737],[79.7598,10.2582],[79.5567,10.2987],[79.5518,10.3133],[79.604,10.3291],[79.5869,10.3437],[79.5286,10.3383],[79.5322,10.3232],[79.4597,10.3083],[79.3981,10.3247],[79.2861,10.2528],[79.2692,10.1978],[79.2363,10.1666],[79.2542,10.0543],[79.2791,10.0358],[79.2004,9.9703],[79.0941,9.8023],[78.9808,9.6672],[78.9773,9.6379],[78.9383,9.5837],[78.9133,9.4743],[78.9597,9.385],[79.0747,9.2999],[79.2517,9.2885],[79.3201,9.3233],[79.3411,9.3159],[79.3337,9.2783],[79.3535,9.2409],[79.4536,9.159],[79.424,9.1591],[79.2927,9.2503],[79.1654,9.2742],[79.0872,9.2538],[78.9889,9.2783],[78.929,9.2538],[78.8438,9.244],[78.7278,9.1874],[78.6763,9.1841],[78.6348,9.1446],[78.4121,9.0998],[78.2398,8.9656],[78.1828,8.8771],[78.1624,8.7535],[78.2102,8.7883],[78.2152,8.7654],[78.1692,8.7336],[78.1426,8.6579],[78.1146,8.6579],[78.1423,8.5931],[78.1283,8.488],[78.0798,8.432],[78.0559,8.3637],[77.9998,8.3449],[77.8062,8.2287],[77.7683,8.1815],[77.5952,8.139],[77.561,8.1146],[77.5653,8.0825],[77.4497,8.0875],[77.3156,8.1278],[77.2389,8.1751],[76.9959,8.3681],[76.6445,8.819],[76.544,8.9125],[76.5591,8.9252],[76.5733,8.9044],[76.6206,8.9254],[76.5816,8.9199],[76.574,8.9426],[76.6033,8.9732],[76.6576,8.9664],[76.6343,8.9869],[76.6685,9.0074],[76.6206,8.9871],[76.5828,9.0006],[76.5586,8.9521],[76.5654,8.9943],[76.5388,8.9726],[76.5381,8.9391],[76.5281,8.947],[76.4605,9.1149],[76.4624,9.1383],[76.4766,9.1166],[76.4828,9.1718],[76.4624,9.1514],[76.4282,9.2453],[76.4146,9.247],[76.4426,9.1452],[76.363,9.3252],[76.3118,9.493],[76.2774,9.8093],[76.2363,9.9527],[76.2515,9.9631],[76.291,9.9086],[76.2568,9.9086],[76.2669,9.876],[76.2774,9.8708],[76.2842,9.8912],[76.2808,9.8428],[76.3,9.8478],[76.3086,9.8796],[76.3389,9.6994],[76.3462,9.8161],[76.3201,9.8616],[76.3327,9.8708],[76.3592,9.8161],[76.368,9.7156],[76.3941,9.6789],[76.3574,9.5207],[76.459,9.4973],[76.5033,9.535],[76.407,9.5691],[76.4197,9.5942],[76.4146,9.6827],[76.3941,9.7062],[76.3804,9.7851],[76.3941,9.8428],[76.3592,9.9154],[76.3115,9.9669],[76.2943,9.9513],[76.2782,9.9779],[76.2739,10.0358],[76.2551,10.0477],[76.2451,10.1022],[76.2153,10.1383],[76.2075,10.1171],[76.2427,9.9875],[76.1824,10.1057],[76.1775,10.1706],[76.2241,10.1969],[76.2402,10.239],[76.2228,10.2344],[76.1948,10.2686],[76.2017,10.1997],[76.1706,10.1938],[76.1532,10.2202],[76.0524,10.514],[76.0081,10.5671],[75.922,10.7656],[75.9416,10.7962],[75.9111,10.8092],[75.8945,10.8498],[75.8328,11.0978],[75.7308,11.3317],[75.7355,11.3715],[75.7222,11.3675],[75.6648,11.4626],[75.6089,11.4849],[75.5061,11.7272],[75.3797,11.865],[75.3558,11.8577],[75.3076,11.9322],[75.4002,11.9202],[75.3828,11.9455],[75.3934,11.9748],[75.3491,11.9476],[75.3023,11.9661],[75.2811,12.0106],[75.3298,12.0126],[75.3042,12.0432],[75.2643,12.0133],[75.2767,11.9674],[75.2222,12.022],[75.2085,12.0084],[75.1937,12.0223],[75.1309,12.2078],[75.1397,12.2486],[75.1055,12.2213],[75.0829,12.3059],[74.992,12.4617],[74.8557,12.7594],[74.8523,12.7973],[74.8276,12.8247],[74.825,12.8382],[74.8591,12.8246],[74.9409,12.8786],[74.8176,12.8618],[74.7703,13.0524],[74.7834,13.0847],[74.6895,13.3816],[74.6809,13.4682],[74.6937,13.4153],[74.7083,13.413],[74.6667,13.6328],[74.7356,13.6538],[74.7129,13.6562],[74.6883,13.6859],[74.7014,13.6948],[74.6878,13.7118],[74.6605,13.6601],[74.6146,13.8355],[74.4954,14.0306],[74.4675,14.1814],[74.429,14.2404],[74.4334,14.2634],[74.509,14.2503],[74.4154,14.3011],[74.3519,14.5302],[74.3888,14.4627],[74.4072,14.462],[74.4011,14.4797],[74.4277,14.4763],[74.3724,14.5302],[74.3792,14.5446],[74.3587,14.5446],[74.3587,14.5712],[74.3429,14.5637],[74.339,14.524],[74.3005,14.5274],[74.2952,14.5873],[74.339,14.6128],[74.2759,14.6102],[74.2529,14.7189],[74.2205,14.7381],[74.1943,14.7158],[74.1738,14.7499],[74.1533,14.7499],[74.0964,14.7934],[74.0913,14.8114],[74.1091,14.8026],[74.1187,14.8319],[74.1405,14.8388],[74.1595,14.8257],[74.179,14.8563],[74.2331,14.8646],[74.2352,14.8765],[74.208,14.9008],[74.1118,14.8462],[74.0912,14.8876],[74.036,14.9213],[74.0313,14.9953],[73.9958,15.0107],[73.9644,15.0646],[73.9131,15.0789],[73.929,15.1206],[73.9622,15.152],[73.9473,15.1608],[73.8913,15.3432],[73.8274,15.3652],[73.7829,15.4079],[73.8996,15.4079],[73.9334,15.3954],[73.9541,15.3663],[73.9678,15.3738],[73.9276,15.4174],[73.8416,15.4489],[73.7964,15.4489],[73.8176,15.4966],[73.8722,15.5109],[73.8595,15.5211],[73.866,15.5376],[73.7864,15.4922],[73.7512,15.5131],[73.7371,15.5985],[73.7604,15.632],[73.8381,15.6611],[73.7839,15.6591],[73.7283,15.6196],[73.6859,15.7043],[73.7009,15.7232],[73.6463,15.7369],[73.6463,15.7921],[73.6047,15.8808],[73.491,15.9935],[73.4873,16.0142],[73.516,16.0248],[73.4839,16.0282],[73.4504,16.0589],[73.4634,16.1596],[73.488,16.1894],[73.4528,16.1666],[73.447,16.1136],[73.4352,16.2178],[73.4136,16.2239],[73.3787,16.3569],[73.3582,16.3675],[73.3849,16.4016],[73.3413,16.4321],[73.3058,16.5226],[73.3073,16.5632],[73.344,16.5236],[73.3787,16.5183],[73.3508,16.5382],[73.3713,16.5593],[73.3364,16.5656],[73.3146,16.5994],[73.3582,16.6207],[73.363,16.5968],[73.3713,16.6102],[73.3543,16.6347],[73.3235,16.6207],[73.3122,16.6447],[73.3216,16.6925],[73.2896,16.7402],[73.3037,16.8131],[73.2866,16.8209],[73.2694,16.8756],[73.2705,16.945],[73.2894,16.9838],[73.2546,17.0067],[73.2512,17.0322],[73.259,17.0441],[73.2694,17.0316],[73.2757,17.0786],[73.236,17.2206],[73.187,17.306],[73.2312,17.2793],[73.249,17.2849],[73.1706,17.3897],[73.1807,17.4777],[73.126,17.5565],[73.2007,17.5865],[73.1392,17.6008],[73.1213,17.6264],[73.1261,17.6554],[73.1055,17.6889],[73.1233,17.7358],[73.0186,17.9517],[73.0354,17.9918],[73.0052,18.0124],[73.0435,18.067],[73.0088,18.039],[72.9873,18.0666],[72.9673,18.196],[72.9548,18.2175],[72.9269,18.2239],[72.94,18.286],[72.9727,18.2447],[73.051,18.2275],[73.0575,18.1856],[73.0715,18.2041],[73.0715,18.273],[72.9949,18.2836],[72.968,18.3106],[72.9748,18.3276],[72.9126,18.3612],[72.8897,18.4413],[72.9072,18.5236],[72.9468,18.5324],[73.0088,18.4505],[73.015,18.47],[72.9888,18.4899],[72.9603,18.5547],[72.9102,18.559],[72.8553,18.6811],[72.8524,18.7699],[72.8656,18.7994],[72.9126,18.8],[72.9269,18.8266],[72.9748,18.7795],[72.9696,18.747],[72.9951,18.731],[72.9917,18.7794],[73.0163,18.8136],[72.9813,18.8327],[72.9778,18.875],[72.9461,18.8583],[72.8968,18.8945],[72.9126,18.9235],[72.9281,18.9114],[72.9368,18.9474],[72.9772,18.9484],[72.9883,18.9644],[72.9536,18.9713],[73.0466,18.9952],[73.0568,19.0153],[72.9883,18.9986],[72.9919,19.0672],[72.9673,19.091],[72.9748,19.1631],[72.9356,19.1151],[72.9343,19.0341],[72.8914,18.9918],[72.8853,19.0259],[72.8693,19.0114],[72.8213,18.9033],[72.8027,18.9098],[72.8027,18.9576],[72.7754,18.9365],[72.7704,18.9482],[72.8024,18.9997],[72.8027,19.0402],[72.8171,19.0327],[72.8242,19.0535],[72.8096,19.0668],[72.8231,19.1085],[72.8096,19.1463],[72.8231,19.1693],[72.8112,19.1755],[72.7922,19.1505],[72.7816,19.1597],[72.8301,19.2524],[72.8151,19.2536],[72.7754,19.2047],[72.7854,19.3139],[72.867,19.3168],[72.9006,19.2908],[72.9727,19.2937],[73.0266,19.2055],[73.0497,19.2177],[72.9878,19.3007],[72.8989,19.307],[72.8369,19.348],[72.8021,19.3319],[72.7634,19.3802],[72.7544,19.4818],[72.8792,19.5324],[72.8567,19.5413],[72.7959,19.5268],[72.742,19.5808],[72.7345,19.5466],[72.7556,19.5194],[72.7225,19.5363],[72.6867,19.7248],[72.7078,19.6975],[72.7264,19.7058],[72.714,19.7458],[72.7313,19.7546],[72.7328,19.7797],[72.7283,19.7936],[72.6779,19.7466],[72.6799,19.8005],[72.6492,19.852],[72.6642,19.8816],[72.6652,19.9529],[72.7034,19.9976],[72.7103,20.0829],[72.7556,20.2152],[72.742,20.225],[72.7482,20.2803],[72.7816,20.3523],[72.8171,20.3759],[72.8294,20.4379],[72.8865,20.5316],[72.8853,20.6192],[72.9094,20.6987],[72.8989,20.7322],[72.9468,20.7595],[72.9194,20.7874],[72.9194,20.8215],[72.9002,20.7991],[72.8858,20.8071],[72.8801,20.8299],[72.9004,20.8681],[72.8369,20.8358],[72.8649,20.8973],[72.8367,20.9299],[72.8865,20.9621],[72.8884,20.9826],[72.8327,20.9724],[72.772,21.0239],[72.7669,21.0386],[72.8231,21.0338],[72.8499,21.048],[72.8096,21.13],[72.7556,21.1096],[72.742,21.1232],[72.7345,21.0925],[72.7004,21.0748],[72.7287,21.1481],[72.714,21.1641],[72.6764,21.1536],[72.6712,21.0998],[72.6379,21.0854],[72.615,21.1059],[72.6304,21.136],[72.7345,21.1989],[72.647,21.2536],[72.6458,21.2734],[72.6184,21.2529],[72.5868,21.3412],[72.6458,21.3628],[72.5789,21.367],[72.5646,21.3858],[72.6351,21.4075],[72.7283,21.4658],[72.7471,21.4529],[72.7383,21.4829],[72.5837,21.4174],[72.6196,21.4874],[72.7732,21.5805],[72.8231,21.6439],[72.8897,21.6405],[73.117,21.7372],[73.132,21.7578],[73.1188,21.7647],[72.9269,21.685],[72.8582,21.695],[72.7981,21.6735],[72.6161,21.6855],[72.5503,21.6667],[72.5285,21.6951],[72.5669,21.8494],[72.6184,21.9251],[72.6901,21.9388],[72.7345,21.994],[72.7078,21.994],[72.6935,21.9723],[72.6231,21.9666],[72.5427,21.9108],[72.5017,21.976],[72.5359,22.1405],[72.5755,22.1945],[72.6345,22.2104],[72.7482,22.164],[72.8123,22.2341],[72.8474,22.2404],[72.8972,22.213],[72.916,22.2231],[72.9175,22.2714],[72.8182,22.2734],[72.7566,22.2437],[72.5737,22.2882],[72.4662,22.2326],[72.4548,22.2453],[72.4639,22.264],[72.4137,22.2463],[72.3919,22.2535],[72.3804,22.3124],[72.405,22.333],[72.3972,22.3668],[72.361,22.3435],[72.3283,22.2607],[72.2752,22.2603],[72.2647,22.2952],[72.2404,22.3019],[72.2085,22.3004],[72.2063,22.2739],[72.1488,22.2779],[72.1907,22.2513],[72.2404,22.2882],[72.2391,22.2389],[72.3065,22.2296],[72.3172,22.1849],[72.3076,22.079],[72.2577,22.0122],[72.221,22.011],[72.2144,21.994],[72.1999,22.007],[72.1731,21.9757],[72.1343,22.0046],[72.097,22.007],[72.1281,21.9835],[72.1149,21.9694],[72.0765,21.9797],[72.1045,21.9592],[72.1021,21.9451],[72.0552,21.9535],[72.0287,21.9388],[72.1045,21.9177],[72.1565,21.9258],[72.1454,21.9108],[72.1698,21.8904],[72.1694,21.8414],[72.1309,21.8463],[72.058,21.8987],[72.0493,21.8804],[72.0864,21.8656],[72.1045,21.8358],[72.0628,21.8344],[72.0042,21.8577],[71.9961,21.7995],[72.0015,21.7879],[72.0218,21.801],[72.0218,21.7743],[72.0739,21.7887],[72.1174,21.7766],[72.166,21.7939],[72.2238,21.7006],[72.2717,21.6909],[72.2988,21.6263],[72.2199,21.4447],[72.1045,21.315],[72.1115,21.2961],[72.0908,21.2529],[72.1047,21.2051],[71.9907,21.1364],[71.9263,21.13],[71.763,21.0323],[71.7176,21.0321],[71.5835,20.9582],[71.5496,20.9512],[71.5693,20.9792],[71.5511,20.9736],[71.4622,20.8853],[71.3186,20.8493],[71.1406,20.7657],[71.0955,20.7637],[71.0623,20.739],[71.0077,20.7416],[70.9824,20.7101],[70.8402,20.7019],[70.7746,20.7274],[70.7402,20.7185],[70.5415,20.8078],[70.4514,20.8559],[70.3988,20.9035],[70.3367,20.9271],[70.0544,21.1532],[69.845,21.3896],[69.8086,21.4658],[69.7564,21.4904],[69.6297,21.616],[69.5682,21.6501],[69.4785,21.7526],[69.4274,21.7812],[69.3977,21.8153],[69.3909,21.8767],[69.3678,21.8561],[69.3362,21.8625],[69.1984,21.9797],[68.9942,22.2039],[68.9446,22.2951],[68.9832,22.4194],[69.0736,22.4819],[69.0823,22.4595],[69.0482,22.4316],[69.0718,22.3995],[69.147,22.4049],[69.1786,22.4276],[69.2022,22.4149],[69.1697,22.3279],[69.2121,22.2739],[69.2865,22.2846],[69.3599,22.3292],[69.4797,22.3422],[69.5256,22.3921],[69.516,22.4481],[69.5479,22.4521],[69.5547,22.3776],[69.6161,22.3559],[69.6297,22.3838],[69.6404,22.376],[69.6694,22.4092],[69.6994,22.4043],[69.7334,22.48],[69.7949,22.4186],[69.8333,22.4638],[69.8848,22.4736],[69.973,22.5414],[70.0591,22.5584],[70.1447,22.5478],[70.1785,22.562],[70.3191,22.7783],[70.3225,22.8227],[70.3753,22.9027],[70.4534,22.9666],[70.4863,22.9637],[70.5047,22.9796],[70.5285,23.0471],[70.5029,23.1044],[70.4671,23.1297],[70.3988,23.069],[70.411,23.0232],[70.3924,22.9409],[70.3035,22.9381],[70.2331,23.0001],[70.222,22.9592],[70.1631,22.949],[70.1291,22.9693],[70.1306,22.994],[70.1095,22.9592],[70.1354,22.93],[69.8332,22.8585],[69.7801,22.8275],[69.7158,22.7469],[69.5857,22.7612],[69.3381,22.8331],[69.2019,22.8522],[69.0399,22.9505],[68.8662,23.02],[68.6541,23.1578],[68.6497,23.1809],[68.6226,23.1916],[68.5999,23.225],[68.5957,23.2404],[68.6094,23.2267],[68.6231,23.2676],[68.5523,23.2597],[68.541,23.2782],[68.561,23.3161],[68.603,23.3328],[68.561,23.3639],[68.5207,23.3692],[68.5151,23.3993],[68.541,23.4117],[68.5301,23.4257],[68.4754,23.4049],[68.4588,23.4198],[68.4655,23.4458],[68.4404,23.4343],[68.4237,23.4458],[68.4474,23.4875],[68.4858,23.5141],[68.4813,23.5251],[68.4587,23.5215],[68.4373,23.5488],[68.447,23.503],[68.4116,23.4947],[68.4061,23.5087],[68.4089,23.6213],[68.4275,23.6314],[68.4915,23.6188],[68.4927,23.6376],[68.4688,23.6408],[68.4694,23.6592],[68.5335,23.6792],[68.5835,23.7353],[68.6379,23.7615],[68.6707,23.8157],[68.7256,23.8189],[68.8216,23.8784],[68.7669,23.8784],[68.7178,23.841],[68.6335,23.8331],[68.5989,23.7819],[68.4277,23.7143],[68.342,23.624],[68.3489,23.6034],[68.3176,23.5861],[68.1814,23.5941],[68.1434,23.6127],[68.1981,23.6591],[68.2327,23.645],[68.2759,23.6658],[68.2804,23.686],[68.241,23.674],[68.2088,23.6962],[68.1978,23.7748],[68.1681,23.7475],[68.1831,23.8435],[68.1575,23.9051],[68.1706,23.8399],[68.1433,23.7611],[68.1491,23.6945],[68.1022,23.7338],[68.0989,23.7093],[68.0628,23.7231],[68.0539,23.7437],[68.0744,23.7648],[68.0817,23.8056],[68.1022,23.8157],[68.0594,23.8619],[68.0637,23.9232],[68.0135,23.9393],[68.0539,23.8294],[68.0135,23.7685],[67.9942,23.8112],[67.9509,23.8089],[67.9343,23.833],[67.9099,23.8362],[67.8999,23.8676],[67.8689,23.8505],[67.8552,23.9119],[67.8317,23.8095],[67.7186,23.8437],[67.7437,23.8088],[67.7157,23.7917],[67.6316,23.8035],[67.6504,23.9331],[67.6374,23.8743],[67.6145,23.8501],[67.5894,23.8665],[67.5884,23.8847],[67.5746,23.8718],[67.5466,23.8983],[67.5301,23.8913],[67.5466,23.871],[67.4785,23.8915],[67.5125,23.8983],[67.5405,23.9393],[67.4989,23.9256],[67.5064,23.974],[67.4512,23.9877],[67.4782,24.0324],[67.5199,24.0451],[67.5331,24.0703],[67.5098,24.0521],[67.354,24.0709],[67.3413,24.0864],[67.2791,24.2812],[67.2928,24.303],[67.286,24.3296],[67.3625,24.3439],[67.2717,24.3691],[67.2866,24.4395],[67.2588,24.4191],[67.2468,24.468],[67.2109,24.5084],[67.2308,24.5251],[67.1946,24.5473],[67.1836,24.5903],[67.2526,24.5903],[67.209,24.6138],[67.1521,24.6157],[67.1755,24.6887],[67.2555,24.748],[67.2327,24.7707],[67.1673,24.7602],[67.1397,24.8033],[67.0812,24.8033],[67.0825,24.7742],[66.9651,24.8436],[66.9651,24.81],[66.8821,24.851],[66.6541,24.8392],[66.6567,24.8587],[66.7044,24.892],[66.6813,24.9105],[66.6813,24.9489],[66.6996,25.0853],[66.7372,25.1811],[66.7102,25.2392],[66.5479,25.3656],[66.5537,25.3854],[66.5793,25.3794],[66.5912,25.3996],[66.5871,25.4262],[66.5505,25.4571],[66.531,25.5181],[66.4928,25.5181],[66.437,25.5977],[66.3877,25.5924],[66.3726,25.6039],[66.3755,25.6257],[66.3386,25.6081],[66.2581,25.612],[66.2039,25.5932],[66.0944,25.4748],[66.2131,25.4914],[66.2588,25.5248],[66.2581,25.5431],[66.3364,25.5534],[66.4232,25.481],[66.4562,25.496],[66.4922,25.481],[66.4575,25.4538],[66.5116,25.4142],[66.4984,25.3985],[66.3595,25.4652],[66.2518,25.4729],[66.1592,25.4469],[65.8584,25.4175],[65.6521,25.3445],[65.4678,25.3854],[65.3823,25.3712],[65.3954,25.3923],[65.2923,25.365],[65.2598,25.3804],[65.2323,25.3707],[65.188,25.311],[65.1553,25.2961],[64.9207,25.3271],[64.7444,25.324],[64.696,25.2976],[64.6686,25.2551],[64.6686,25.2067],[64.7102,25.1794],[64.655,25.1657],[64.6004,25.1732],[64.6277,25.2285],[64.5654,25.2703],[64.5184,25.2756],[64.492,25.2457],[64.4393,25.2346],[64.3607,25.283],[64.2658,25.2987],[64.2446,25.3166],[64.0945,25.3359],[64.1069,25.3854],[64.0835,25.4035],[64.0838,25.4267],[64.1409,25.4289],[64.1553,25.4469],[64.0454,25.4503],[63.9766,25.4128],[63.9971,25.4196],[64.0117,25.3973],[64.0488,25.4165],[64.0796,25.365],[64.0597,25.3446],[63.9441,25.3349],[63.7378,25.3853],[63.5725,25.365],[63.4958,25.2914],[63.4695,25.2893],[63.5187,25.2209],[63.5005,25.1937],[63.4111,25.2225],[63.3081,25.2204],[63.1441,25.2609],[63.0278,25.2204],[62.7705,25.2619],[62.4772,25.2591],[62.4676,25.2235],[62.4894,25.2142],[62.4138,25.2065],[62.3431,25.1555],[62.3391,25.1247],[62.3872,25.1016],[62.3811,25.0876],[62.2561,25.0986],[62.3153,25.1302],[62.2975,25.1851],[62.2542,25.212],[62.1452,25.2184],[62.08,25.1972],[62.059,25.1616],[62.0972,25.1071],[61.8811,25.103],[61.8473,25.0379],[61.7549,25.0135],[61.7201,25.0374],[61.7831,25.188],[61.7495,25.1732],[61.6942,25.2005],[61.5882,25.2021],[61.5545,25.2541],[61.5373,25.2204],[61.5584,25.2005],[61.5042,25.2088],[61.4826,25.1937],[61.5242,25.1732],[61.4895,25.1186],[61.4206,25.0969],[61.4351,25.0877],[61.4117,25.0594],[61.1851,25.1232],[61.1703,25.1644],[61.0306,25.2098],[60.6335,25.275],[60.617,25.2832],[60.6323,25.2961],[60.6082,25.3276],[60.6016,25.406],[60.5497,25.4469],[60.4456,25.4282],[60.3953,25.3779],[60.402,25.3447],[60.4377,25.3339],[60.4672,25.2903],[60.3626,25.3306],[60.3192,25.3299],[60.2903,25.3513],[60.304,25.3712],[60.2894,25.3772],[60.2015,25.3712],[60.1926,25.3561],[60.216,25.3383],[60.2092,25.3197],[60.1167,25.3398],[60.082,25.366],[60.0,25.3576],[60.0,40.0],[101.0,40.0],[101.0,12.6514]]],[[[96.2987,4.0],[96.1978,4.1213],[96.1597,4.1413],[96.1252,4.1364],[96.0652,4.205],[96.01,4.2257],[95.7258,4.5317],[95.6165,4.6284],[95.5654,4.6375],[95.5725,4.6738],[95.5269,4.6973],[95.4684,4.7895],[95.4263,4.8273],[95.3489,5.0375],[95.2798,5.1225],[95.3016,5.1724],[95.2487,5.231],[95.2319,5.2823],[95.199,5.2929],[95.2536,5.4116],[95.2319,5.4508],[95.2455,5.4605],[95.1973,5.5464],[95.2127,5.5731],[95.2798,5.5744],[95.4319,5.6547],[95.5112,5.603],[95.5337,5.6221],[95.6116,5.6267],[95.7622,5.5769],[95.8875,5.5122],[95.9036,5.4508],[95.9304,5.4145],[96.0881,5.2955],[96.2905,5.259],[96.4066,5.2172],[96.4663,5.2355],[96.5274,5.2112],[96.6506,5.2163],[96.8284,5.2802],[96.8944,5.2621],[96.9734,5.2734],[97.0743,5.2382],[97.1493,5.1988],[97.176,5.1613],[97.2266,5.1462],[97.4968,5.2519],[97.5262,5.2423],[97.6644,5.0734],[97.9092,4.8896],[97.9632,4.7895],[97.9754,4.7062],[98.007,4.6339],[97.9968,4.5465],[98.0388,4.5519],[98.048,4.539],[98.0613,4.5548],[98.0896,4.5328],[98.1382,4.5344],[98.1858,4.4844],[98.2057,4.498],[98.2756,4.4254],[98.2664,4.2116],[98.1858,4.1697],[98.179,4.1082],[98.263,4.1773],[98.3057,4.0803],[98.3845,4.0865],[98.4772,4.0462],[98.508,4.0046],[98.558,4.0],[96.2987,4.0]]],[[[90.7669,22.5175],[90.855,22.4347],[90.835,22.3396],[90.8279,22.1524],[90.7747,22.0759],[90.7573,22.0617],[90.75,22.076],[90.6917,22.007],[90.6475,21.994],[90.6394,22.0161],[90.6818,22.1026],[90.626,22.0272],[90.61,22.0241],[90.6035,22.044],[90.6333,22.1231],[90.6222,22.1451],[90.6318,22.1821],[90.6785,22.2828],[90.688,22.3776],[90.6475,22.5483],[90.5588,22.6029],[90.5563,22.6747],[90.5855,22.7681],[90.6506,22.7874],[90.6841,22.6944],[90.747,22.5969],[90.7669,22.5175]]]]}},{"type":"Feature","properties":{"scalerank":6},"geometry":{"type":"MultiPolygon","coordinates":[[[[80.9832,15.7807],[80.9849,15.7618],[80.9426,15.7411],[80.8685,15.812],[80.8792,15.8401],[80.9373,15.8189],[80.9832,15.7807]]],[[[95.127,5.7021],[95.1221,5.6693],[95.0947,5.6836],[95.0607,5.6562],[95.0479,5.6896],[95.0607,5.732],[95.0147,5.7446],[95.0583,5.7573],[95.127,5.7021]]],[[[99.8004,6.2728],[99.837,6.2942],[99.8264,6.1907],[99.8056,6.1718],[99.7672,6.2238],[99.8004,6.2728]]],[[[99.1275,7.6444],[99.1087,7.5942],[99.0446,7.6634],[99.1045,7.6694],[99.1275,7.6444]]],[[[81.7371,7.671],[81.7251,7.7399],[81.8063,7.5986],[81.8233,7.5113],[81.8078,7.4792],[81.7874,7.4968],[81.7874,7.5935],[81.7371,7.671]]],[[[88.8413,21.614],[88.9113,21.5669],[88.908,21.5307],[88.8387,21.5319],[88.8413,21.614]]],[[[89.139,21.7668],[89.1325,21.7216],[89.0515,21.7932],[89.0638,21.8415],[89.0457,21.9171],[89.0676,21.9044],[89.0928,21.7934],[89.139,21.7668]]],[[[88.6502,21.9274],[88.6706,21.9074],[88.6463,21.7879],[88.5918,21.8044],[88.5843,21.8358],[88.6165,21.8979],[88.6502,21.9274]]],[[[90.5061,23.3142],[90.4688,23.3316],[90.4297,23.3852],[90.5394,23.35],[90.5862,23.3017],[90.5296,23.3336],[90.5061,23.3142]]],[[[98.2991,8.9974],[98.307,8.9579],[98.2616,8.8786],[98.2522,8.997],[98.2609,9.0129],[98.2991,8.9974]]]]}},{"type":"Feature","properties":{"scalerank":5},"geometry":{"type":"MultiPolygon","coordinates":[[[[100.2741,5.4685],[100.3434,5.4176],[100.2887,5.2627],[100.1843,5.2685],[100.1961,5.3],[100.1795,5.4582],[100.2106,5.444],[100.2347,5.4645],[100.2741,5.4685]]],[[[95.3513,5.887],[95.3828,5.8419],[95.3828,5.8071],[95.3555,5.8276],[95.3504,5.7836],[95.3203,5.7807],[95.273,5.8071],[95.2146,5.9101],[95.2478,5.9052],[95.2839,5.8574],[95.325,5.898],[95.3513,5.887]]],[[[99.9006,6.3643],[99.9163,6.3315],[99.8657,6.2905],[99.8446,6.3247],[99.8253,6.3241],[99.7287,6.2615],[99.719,6.3532],[99.6587,6.3626],[99.6452,6.4358],[99.7709,6.4198],[99.8143,6.454],[99.8392,6.4548],[99.842,6.4696],[99.9133,6.3902],[99.9006,6.3643]]],[[[99.7044,6.5583],[99.6587,6.4923],[99.6341,6.5521],[99.6003,6.5834],[99.657,6.7238],[99.7044,6.5583]]],[[[93.7344,7.3508],[93.6442,7.2575],[93.6179,7.26],[93.594,7.3148],[93.6167,7.3673],[93.6672,7.3828],[93.697,7.4451],[93.6995,7.3987],[93.7344,7.3508]]],[[[93.4331,7.9543],[93.4598,7.9108],[93.4544,7.8693],[93.4212,7.8918],[93.3543,7.8833],[93.3403,7.9013],[93.3482,7.9249],[93.3136,7.9292],[93.305,7.9499],[93.3226,8.0021],[93.3703,8.0173],[93.3914,8.0156],[93.4012,7.968],[93.4331,7.9543]]],[[[98.4219,7.9084],[98.4317,7.9174],[98.4398,7.8866],[98.3997,7.8646],[98.3981,7.815],[98.3439,7.8329],[98.3231,7.7709],[98.2918,7.7775],[98.2678,7.8901],[98.2853,7.9038],[98.2542,7.9283],[98.2741,7.9537],[98.266,7.9738],[98.2814,8.0031],[98.2814,8.1918],[98.3301,8.1705],[98.3435,8.1092],[98.3601,8.1188],[98.4055,8.0825],[98.4226,8.0993],[98.4391,8.0825],[98.4186,7.9931],[98.3981,7.9726],[98.4219,7.9084]]],[[[93.5376,8.0573],[93.4844,7.9919],[93.4808,8.0405],[93.5169,8.0633],[93.4978,8.0825],[93.4922,8.0636],[93.4663,8.0744],[93.4466,8.1544],[93.4858,8.2201],[93.5046,8.227],[93.5317,8.2132],[93.5052,8.147],[93.5376,8.0573]]],[[[100.0759,9.585],[100.0907,9.5609],[100.0609,9.4638],[100.0193,9.4257],[99.9466,9.4182],[99.9263,9.566],[99.9595,9.5808],[100.0437,9.5642],[100.0759,9.585]]],[[[98.28,10.051],[98.2883,10.008],[98.2692,10.0026],[98.2439,9.9601],[98.179,9.9328],[98.1335,9.8456],[98.1172,9.882],[98.1275,9.9601],[98.2346,10.0542],[98.2957,10.0556],[98.28,10.051]]],[[[98.2707,10.8187],[98.2764,10.7845],[98.2957,10.7819],[98.283,10.7565],[98.2957,10.7347],[98.2507,10.6931],[98.2322,10.7083],[98.2337,10.741],[98.2555,10.7464],[98.2337,10.7683],[98.2405,10.831],[98.1987,10.8817],[98.179,10.8986],[98.1716,10.885],[98.1653,10.9191],[98.1467,10.9245],[98.1003,10.882],[98.0774,10.8881],[98.1312,10.9464],[98.1409,10.9774],[98.1719,10.9787],[98.2156,10.9445],[98.2318,10.8703],[98.2707,10.8187]]],[[[98.2918,11.7989],[98.323,11.7313],[98.302,11.7142],[98.2752,11.4808],[98.2678,11.4882],[98.2609,11.4678],[98.2337,11.5019],[98.2268,11.4739],[98.202,11.4663],[98.22,11.4535],[98.1765,11.4492],[98.1653,11.4739],[98.1995,11.4882],[98.1875,11.535],[98.2131,11.5534],[98.1995,11.5805],[98.2405,11.6248],[98.2385,11.6871],[98.2783,11.7998],[98.2918,11.7989]]],[[[98.5437,11.799],[98.5555,11.7281],[98.549,11.6217],[98.5285,11.5805],[98.5353,11.5292],[98.459,11.5838],[98.4324,11.5667],[98.4317,11.6049],[98.4157,11.6044],[98.4186,11.6323],[98.3794,11.6911],[98.4055,11.708],[98.3799,11.7509],[98.4131,11.7734],[98.3708,11.7893],[98.4528,11.7893],[98.4453,11.8036],[98.5437,11.799]]],[[[98.5199,12.007],[98.6592,11.9487],[98.6582,11.9339],[98.5726,11.9316],[98.5159,11.8959],[98.478,11.8909],[98.4597,11.9337],[98.471,11.9881],[98.4403,12.0154],[98.4309,12.1007],[98.4391,12.112],[98.4732,12.0773],[98.5199,12.007]]],[[[98.0964,12.1872],[98.1375,12.1906],[98.1375,12.1387],[98.1167,12.1655],[98.0767,12.1619],[98.0394,12.2073],[98.0462,12.262],[98.0725,12.2895],[98.1195,12.2756],[98.1199,12.2301],[98.0964,12.1872]]],[[[98.0645,12.3598],[98.0396,12.3225],[98.0105,12.31],[98.0003,12.269],[97.9824,12.3064],[97.9456,12.31],[97.971,12.3449],[97.9661,12.3585],[97.9382,12.338],[97.94,12.3663],[98.0178,12.4027],[98.0054,12.3673],[98.0418,12.3585],[98.0456,12.3891],[98.0759,12.4274],[98.1045,12.383],[98.0877,12.3601],[98.0645,12.3598]]],[[[98.4707,12.556],[98.4653,12.4807],[98.3913,12.3615],[98.3499,12.3259],[98.302,12.338],[98.3361,12.4509],[98.3156,12.4956],[98.333,12.5192],[98.3027,12.5986],[98.3156,12.6874],[98.4055,12.639],[98.3981,12.5875],[98.4255,12.5297],[98.4509,12.604],[98.4707,12.556]]],[[[98.3035,13.083],[98.3185,13.0914],[98.3364,13.0739],[98.302,13.0294],[98.3143,12.9255],[98.302,12.9133],[98.2405,13.1393],[98.2473,13.215],[98.2688,13.1989],[98.3035,13.083]]],[[[94.6675,16.1719],[94.6296,16.0752],[94.5696,16.0052],[94.478,15.9661],[94.4784,15.9423],[94.4027,15.8393],[94.4172,15.8718],[94.3823,15.9696],[94.3897,16.0009],[94.4854,16.059],[94.5188,16.1204],[94.6428,16.2455],[94.6621,16.2219],[94.6675,16.1719]]],[[[97.5886,16.3998],[97.5714,16.2227],[97.5475,16.1999],[97.5169,16.2098],[97.5105,16.2542],[97.4593,16.3014],[97.4849,16.3639],[97.4548,16.4369],[97.4596,16.4774],[97.5205,16.5109],[97.6063,16.4835],[97.6106,16.4462],[97.5886,16.3998]]],[[[93.7424,18.8723],[93.756,18.7315],[93.7319,18.6897],[93.6931,18.6738],[93.6453,18.6793],[93.4978,18.8409],[93.4841,18.875],[93.5772,18.8819],[93.6218,18.9103],[93.6633,18.8732],[93.7424,18.8723]]],[[[93.9736,19.4027],[93.9658,19.363],[93.8989,19.3033],[93.8752,19.3139],[93.8649,19.2829],[93.8027,19.2767],[93.7498,19.3333],[93.7254,19.3869],[93.7305,19.4193],[93.6691,19.4465],[93.6418,19.492],[93.6882,19.5595],[93.7236,19.5564],[93.82,19.4715],[93.8802,19.4792],[93.9562,19.4325],[93.9736,19.4027]]],[[[93.4988,19.887],[93.512,19.7458],[93.4407,19.8109],[93.4028,19.9531],[93.4426,19.9381],[93.4988,19.887]]],[[[92.9529,20.0631],[93.0147,19.9056],[93.0249,19.8278],[93.0012,19.9066],[92.9094,20.0651],[92.9168,20.0889],[92.9529,20.0631]]],[[[91.9387,21.7148],[91.9839,21.6092],[91.9702,21.5236],[91.9611,21.5062],[91.8945,21.5068],[91.8997,21.486],[91.8771,21.481],[91.8552,21.5195],[91.874,21.5819],[91.8479,21.6888],[91.8535,21.7258],[91.8723,21.7548],[91.898,21.7433],[91.8877,21.685],[91.9095,21.7268],[91.9012,21.7743],[91.9356,21.7812],[91.9387,21.7148]]],[[[91.1269,22.3749],[91.1814,22.2836],[91.1868,22.2278],[91.1706,22.1972],[91.1415,22.1462],[91.0824,22.1014],[91.0225,22.0949],[91.0051,22.1168],[91.0591,22.192],[91.0748,22.3886],[91.1269,22.3749]]],[[[91.5564,22.4782],[91.5552,22.402],[91.5075,22.3968],[91.4761,22.4133],[91.4238,22.5253],[91.4468,22.5763],[91.4676,22.5863],[91.5564,22.4782]]]]}},{"type":"Feature","properties":{"scalerank":6},"geometry":{"type":"MultiPolygon","coordinates":[[[[97.84,9.4043],[97.8436,9.425],[97.8684,9.4204],[97.8718,9.3796],[97.84,9.4043]]],[[[99.7035,9.5213],[99.6815,9.5129],[99.6681,9.5192],[99.6987,9.5422],[99.7035,9.5213]]],[[[99.6843,9.62],[99.6781,9.6104],[99.6753,9.6245],[99.6843,9.62]]],[[[98.0376,9.7907],[98.0081,9.8074],[98.0303,9.8334],[98.0569,9.8144],[98.0575,9.7969],[98.0376,9.7907]]],[[[73.6439,10.0945],[73.6371,10.0626],[73.6326,10.0573],[73.6439,10.0945]]],[[[73.6556,10.1448],[73.6579,10.1391],[73.6546,10.1415],[73.6556,10.1448]]],[[[98.2219,10.4981],[98.1927,10.4824],[98.1853,10.5012],[98.202,10.5243],[98.2337,10.5294],[98.2219,10.4981]]],[[[72.6497,10.5668],[72.6275,10.5548],[72.6506,10.5726],[72.6497,10.5668]]],[[[72.5488,10.7793],[72.5412,10.7729],[72.5425,10.7779],[72.5488,10.7793]]],[[[73.6812,10.8281],[73.6729,10.8247],[73.6714,10.8297],[73.6812,10.8281]]],[[[98.4295,10.9777],[98.4514,11.0019],[98.4403,10.9656],[98.4295,10.9777]]],[[[72.75,11.1191],[72.745,11.1095],[72.7395,11.1088],[72.75,11.1191]]],[[[73.0109,11.4901],[73.0056,11.4796],[73.0132,11.5022],[73.0109,11.4901]]],[[[72.7161,11.6941],[72.7053,11.6873],[72.7009,11.6864],[72.7051,11.6923],[72.7161,11.6941]]],[[[97.4645,11.7825],[97.4443,11.8002],[97.4797,11.778],[97.4645,11.7825]]],[[[93.8538,12.2606],[93.8519,12.2716],[93.8606,12.2812],[93.8728,12.2689],[93.8538,12.2606]]],[[[97.8353,12.7928],[97.8528,12.8065],[97.8635,12.7668],[97.8369,12.7724],[97.8353,12.7928]]],[[[94.2908,13.4229],[94.2749,13.4203],[94.2619,13.4293],[94.2809,13.4435],[94.2908,13.4229]]],[[[95.1911,5.6085],[95.1563,5.5948],[95.1091,5.622],[95.1418,5.6641],[95.1911,5.6085]]],[[[99.2603,6.5658],[99.1948,6.5331],[99.1585,6.5544],[99.1764,6.5502],[99.2063,6.5749],[99.2603,6.5658]]],[[[99.3855,7.2756],[99.4539,7.239],[99.4172,7.2353],[99.3833,7.1941],[99.3855,7.2756]]],[[[93.5483,8.0201],[93.5742,7.9688],[93.574,7.9249],[93.5108,7.9802],[93.5483,8.0201]]],[[[98.6375,8.1713],[98.6209,8.09],[98.5701,8.1189],[98.5967,8.1303],[98.5923,8.1468],[98.624,8.1918],[98.6375,8.1713]]],[[[93.6077,8.5692],[93.6252,8.4736],[93.6014,8.4382],[93.595,8.558],[93.6077,8.5692]]],[[[79.7228,9.4926],[79.666,9.4913],[79.6587,9.5554],[79.6763,9.535],[79.7192,9.5244],[79.7228,9.4926]]],[[[98.4116,9.7746],[98.4167,9.7335],[98.3981,9.7062],[98.3849,9.7279],[98.4116,9.7746]]],[[[98.1858,10.0421],[98.1716,10.1481],[98.179,10.1929],[98.2405,10.1723],[98.2337,10.1445],[98.2014,10.1181],[98.1858,10.0421]]],[[[97.9026,10.4793],[97.9251,10.4741],[97.9435,10.4438],[97.9177,10.4331],[97.9319,10.412],[97.9102,10.4019],[97.8894,10.42],[97.9041,10.4393],[97.8963,10.4875],[97.9115,10.4945],[97.9026,10.4793]]],[[[98.4937,10.8911],[98.5532,10.8328],[98.5415,10.7962],[98.5095,10.7866],[98.5042,10.8061],[98.5285,10.8201],[98.5005,10.8235],[98.4909,10.8808],[98.4937,10.8911]]],[[[97.8963,10.9133],[97.9518,10.9191],[97.9277,10.872],[97.8836,10.8445],[97.8963,10.9133]]],[[[98.281,11.2458],[98.302,11.2412],[98.2473,11.2145],[98.22,11.2691],[98.2814,11.2759],[98.281,11.2458]]],[[[92.2781,11.5838],[92.285,11.544],[92.2521,11.5292],[92.2345,11.5404],[92.2173,11.5981],[92.2781,11.5838]]],[[[97.6644,11.906],[97.6667,11.8634],[97.6719,11.8377],[97.6509,11.8445],[97.6428,11.8677],[97.6644,11.906]]],[[[98.2542,11.8581],[98.2654,11.9085],[98.2848,11.8961],[98.2737,11.8533],[98.2542,11.8581]]],[[[98.2687,11.9423],[98.2461,11.9254],[98.2271,11.9539],[98.2522,11.9748],[98.2687,11.9423]]],[[[93.1038,12.1879],[93.1033,12.102],[93.0942,12.091],[93.0593,12.1536],[93.0733,12.2008],[93.0911,12.2043],[93.1038,12.1879]]],[[[98.5169,12.4794],[98.5086,12.4103],[98.4821,12.4106],[98.4743,12.425],[98.4998,12.5131],[98.5169,12.4794]]],[[[98.2568,12.5742],[98.2899,12.5263],[98.2829,12.5039],[98.2605,12.4953],[98.2297,12.5274],[98.2568,12.5742]]],[[[97.827,12.5907],[97.8457,12.598],[97.8605,12.57],[97.8499,12.5373],[97.8294,12.5571],[97.827,12.5907]]],[[[93.0332,13.6802],[93.0527,13.6402],[92.9906,13.6675],[93.0332,13.6802]]],[[[97.9382,13.8518],[97.9251,13.7836],[97.9177,13.7836],[97.9187,13.8533],[97.9382,13.8518]]],[[[93.4002,14.0956],[93.3748,14.0647],[93.3903,14.1538],[93.396,14.1404],[93.4002,14.0956]]],[[[93.6758,14.8592],[93.7039,14.9044],[93.7244,14.9138],[93.7044,14.871],[93.6758,14.8592]]],[[[97.6602,15.5804],[97.6644,15.5041],[97.6509,15.5922],[97.6602,15.5804]]],[[[88.0431,21.6576],[88.1193,21.8595],[88.1467,21.8699],[88.1634,21.7055],[88.1326,21.685],[88.146,21.6437],[88.1301,21.6259],[88.0635,21.6367],[88.0431,21.6576]]],[[[88.0723,21.8568],[88.0847,21.9216],[88.1189,21.945],[88.1326,21.9205],[88.125,21.8887],[88.105,21.8612],[88.0723,21.8568]]],[[[90.5935,21.9866],[90.6066,21.9388],[90.5808,21.9125],[90.5656,21.9177],[90.5408,21.8759],[90.5036,21.8625],[90.5315,21.8767],[90.5104,21.8979],[90.522,21.9388],[90.5935,21.9866]]],[[[90.354,21.9768],[90.3943,22.0002],[90.3416,21.8603],[90.3229,21.8439],[90.3225,21.9167],[90.354,21.9768]]],[[[90.3875,22.048],[90.346,21.9723],[90.3396,21.9723],[90.3587,22.0227],[90.3875,22.048]]],[[[90.4285,22.048],[90.4862,21.9768],[90.4763,21.945],[90.4319,21.9078],[90.4024,21.9069],[90.3943,21.9388],[90.4155,22.0383],[90.4285,22.048]]],[[[90.5383,22.0685],[90.4837,22.035],[90.5031,22.0963],[90.6135,22.164],[90.5935,22.1026],[90.5862,22.1306],[90.5597,22.0237],[90.5195,21.9947],[90.5036,22.0241],[90.5383,22.0685]]],[[[90.9471,22.2116],[90.9567,22.1448],[90.949,22.1216],[90.9294,22.1169],[90.9203,22.1601],[90.9356,22.2125],[90.9471,22.2116]]],[[[90.9764,22.1858],[90.9829,22.2592],[90.9969,22.2535],[90.9764,22.1858]]],[[[90.9372,22.2327],[90.9567,22.2777],[90.9764,22.3633],[90.9935,22.3223],[90.9901,22.2814],[90.9529,22.2268],[90.9372,22.2327]]],[[[90.6136,22.4286],[90.6014,22.4292],[90.6016,22.4483],[90.6331,22.4316],[90.6587,22.3795],[90.6611,22.3559],[90.6475,22.3838],[90.6404,22.366],[90.6401,22.3087],[90.6136,22.4286]]],[[[90.6535,22.4835],[90.6673,22.439],[90.6475,22.4247],[90.6535,22.4835]]],[[[91.2,22.5147],[91.2108,22.4955],[91.1802,22.4592],[91.1342,22.4495],[91.1137,22.4614],[91.1236,22.4891],[91.2,22.5147]]],[[[90.5923,22.8819],[90.6782,22.8083],[90.591,22.8139],[90.5466,22.7837],[90.521,22.7118],[90.4928,22.7532],[90.4557,22.7674],[90.4661,22.8518],[90.4868,22.8704],[90.5923,22.8819]]],[[[90.4557,23.0628],[90.5156,23.0519],[90.4695,23.0076],[90.4557,23.0628]]],[[[72.7031,4.0033],[72.7047,4.0],[72.6999,4.0],[72.7031,4.0033]]],[[[73.5083,4.0933],[73.5023,4.1008],[73.5081,4.1036],[73.5083,4.0933]]],[[[72.9725,4.2604],[72.9756,4.2624],[72.9758,4.2604],[72.9725,4.2604]]],[[[73.7028,4.4347],[73.6976,4.4315],[73.6974,4.4314],[73.7028,4.4347]]],[[[73.7026,4.4529],[73.6999,4.4492],[73.7,4.4516],[73.7026,4.4529]]],[[[73.3773,4.4653],[73.3739,4.467],[73.3767,4.4744],[73.3773,4.4653]]],[[[73.4012,4.6298],[73.4053,4.6284],[73.403,4.6274],[73.4012,4.6298]]],[[[73.4905,4.7233],[73.4907,4.7167],[73.4885,4.716],[73.4905,4.7233]]],[[[72.9697,4.8807],[72.9727,4.8944],[72.9793,4.8955],[72.9697,4.8807]]],[[[72.9229,4.8991],[72.9209,4.8979],[72.9175,4.8986],[72.9229,4.8991]]],[[[73.4365,4.9699],[73.4412,4.9749],[73.4473,4.9713],[73.4365,4.9699]]],[[[72.9094,5.0308],[72.9102,5.0327],[72.9129,5.0341],[72.9094,5.0308]]],[[[72.9277,5.0365],[72.9271,5.0339],[72.9243,5.033],[72.9277,5.0365]]],[[[73.0448,5.1218],[73.0435,5.1188],[73.0413,5.1184],[73.0448,5.1218]]],[[[73.0453,5.1289],[73.0514,5.1267],[73.0476,5.1264],[73.0453,5.1289]]],[[[73.0913,5.1614],[73.0879,5.158],[73.0877,5.1579],[73.0913,5.1614]]],[[[73.1071,5.171],[73.1069,5.1718],[73.1105,5.1703],[73.1071,5.171]]],[[[72.8601,5.2379],[72.8592,5.2355],[72.8566,5.2344],[72.8601,5.2379]]],[[[73.1318,5.2425],[73.1284,5.2412],[73.1318,5.2446],[73.1318,5.2425]]],[[[73.4998,5.2469],[73.4972,5.245],[73.4938,5.246],[73.4998,5.2469]]],[[[73.5936,5.2827],[73.5776,5.2746],[73.57,5.2768],[73.5936,5.2827]]],[[[73.1126,5.2984],[73.1092,5.2952],[73.1092,5.2967],[73.1126,5.2984]]],[[[73.4644,5.3069],[73.4671,5.3083],[73.4701,5.3077],[73.4644,5.3069]]],[[[73.6296,5.3328],[73.6272,5.3311],[73.6233,5.3319],[73.6296,5.3328]]],[[[73.6434,5.3439],[73.6401,5.3422],[73.6399,5.3422],[73.6434,5.3439]]],[[[72.9524,5.3501],[72.9496,5.3493],[72.9531,5.3528],[72.9524,5.3501]]],[[[73.3962,5.3571],[73.4006,5.3577],[73.4012,5.3561],[73.3962,5.3571]]],[[[73.3233,5.3682],[73.3301,5.3668],[73.3177,5.3658],[73.3233,5.3682]]],[[[73.3449,5.4268],[73.3475,5.4288],[73.3508,5.4277],[73.3449,5.4268]]],[[[73.5349,5.4499],[73.5313,5.4504],[73.5374,5.4514],[73.5349,5.4499]]],[[[73.363,5.4631],[73.3631,5.4594],[73.3607,5.4578],[73.363,5.4631]]],[[[72.937,5.4656],[72.9403,5.4621],[72.9382,5.4615],[72.937,5.4656]]],[[[73.0098,5.4909],[73.013,5.4875],[73.011,5.4868],[73.0098,5.4909]]],[[[73.4593,5.5417],[73.4563,5.5427],[73.4624,5.5436],[73.4593,5.5417]]],[[[72.9988,5.712],[73.0023,5.7071],[72.9998,5.707],[72.9988,5.712]]],[[[72.9485,6.3444],[72.9539,6.3456],[72.9531,6.3435],[72.9485,6.3444]]],[[[72.8909,6.4482],[72.8972,6.4479],[72.8963,6.4458],[72.8909,6.4482]]],[[[72.1727,10.8092],[72.179,10.8487],[72.2,10.8781],[72.1727,10.8092]]],[[[67.3904,24.0493],[67.458,24.0627],[67.4853,24.0485],[67.4539,24.0134],[67.4269,24.0075],[67.3934,24.0281],[67.3755,24.0627],[67.3904,24.0493]]],[[[73.4226,4.1184],[73.4214,4.1164],[73.419,4.1157],[73.4226,4.1184]]],[[[72.9586,4.2625],[72.9544,4.2615],[72.9452,4.2663],[72.9586,4.2625]]],[[[73.5959,4.3423],[73.5925,4.3402],[73.5891,4.3406],[73.5959,4.3423]]],[[[73.6077,4.3581],[73.6118,4.3565],[73.6095,4.3556],[73.6077,4.3581]]],[[[73.6317,4.3685],[73.6371,4.364],[73.6336,4.3647],[73.6317,4.3685]]],[[[73.668,4.3935],[73.6683,4.3869],[73.6662,4.3859],[73.668,4.3935]]],[[[72.9561,4.4221],[72.9434,4.4316],[72.957,4.4383],[72.9561,4.4221]]],[[[73.5498,4.6154],[73.5539,4.6139],[73.5516,4.613],[73.5498,4.6154]]],[[[73.6296,5.4185],[73.6367,5.4029],[73.6325,5.3861],[73.6296,5.4185]]],[[[72.999,5.4611],[73.0026,5.4576],[73.001,5.4562],[72.999,5.4611]]],[[[72.8777,5.4921],[72.8811,5.4885],[72.8792,5.4879],[72.8777,5.4921]]],[[[73.0129,5.6157],[73.0161,5.6123],[73.014,5.6116],[73.0129,5.6157]]],[[[73.0086,5.675],[73.0119,5.6715],[73.0098,5.6708],[73.0086,5.675]]],[[[73.3928,5.7377],[73.3807,5.7146],[73.3796,5.7152],[73.3928,5.7377]]],[[[72.9858,5.7656],[72.9828,5.7625],[72.9868,5.7707],[72.9858,5.7656]]],[[[73.3768,5.7873],[73.3845,5.7869],[73.3807,5.7841],[73.3768,5.7873]]],[[[72.9751,5.8046],[72.971,5.8105],[72.9766,5.8136],[72.9751,5.8046]]],[[[73.4338,5.8309],[73.4431,5.8413],[73.4498,5.8407],[73.4338,5.8309]]],[[[72.9637,5.864],[72.9665,5.8502],[72.9619,5.8567],[72.9637,5.864]]],[[[73.4232,5.9069],[73.4285,5.9044],[73.4263,5.9033],[73.4232,5.9069]]],[[[72.9302,5.9569],[72.9258,5.9633],[72.9317,5.9691],[72.9302,5.9569]]],[[[73.3953,5.9578],[73.3845,5.9647],[73.3898,5.9703],[73.3953,5.9578]]],[[[72.9097,5.9821],[72.9129,5.9763],[72.9098,5.9779],[72.9097,5.9821]]],[[[73.2507,6.0834],[73.249,6.0795],[73.2455,6.0798],[73.2507,6.0834]]],[[[73.2489,6.1102],[73.2472,6.108],[73.2468,6.1077],[73.2489,6.1102]]],[[[73.2205,6.1321],[73.219,6.1293],[73.2152,6.1286],[73.2205,6.1321]]],[[[73.2654,6.1536],[73.2673,6.1509],[73.2651,6.1506],[73.2654,6.1536]]],[[[73.2189,6.1723],[73.214,6.1688],[73.2158,6.1712],[73.2189,6.1723]]],[[[73.2681,6.1787],[73.266,6.185],[73.2708,6.1894],[73.2681,6.1787]]],[[[73.0304,6.221],[73.0291,6.219],[73.029,6.2188],[73.0304,6.221]]],[[[73.2363,6.2321],[73.2439,6.2316],[73.2402,6.2289],[73.2363,6.2321]]],[[[73.1261,6.284],[73.1229,6.2834],[73.1284,6.2869],[73.1261,6.284]]],[[[73.2093,6.2869],[73.2131,6.2892],[73.2088,6.2864],[73.2093,6.2869]]],[[[73.0833,6.3086],[73.0814,6.3056],[73.0781,6.3051],[73.0833,6.3086]]],[[[73.1942,6.3216],[73.2019,6.3222],[73.201,6.3183],[73.1942,6.3216]]],[[[73.1209,6.331],[73.1196,6.3292],[73.1193,6.3289],[73.1209,6.331]]],[[[73.1873,6.3508],[73.1821,6.3463],[73.1802,6.3471],[73.1873,6.3508]]],[[[73.0193,6.3636],[73.0249,6.3648],[73.0242,6.3627],[73.0193,6.3636]]],[[[72.6859,6.4116],[72.6872,6.4074],[72.6859,6.4065],[72.6859,6.4116]]],[[[72.9011,6.4363],[72.9075,6.4359],[72.9066,6.4338],[72.9011,6.4363]]],[[[73.0462,6.4363],[73.0431,6.4337],[73.0488,6.4413],[73.0462,6.4363]]],[[[72.9568,6.56],[72.958,6.5543],[72.9558,6.5553],[72.9568,6.56]]],[[[72.9231,6.5599],[72.9287,6.5611],[72.9277,6.5589],[72.9231,6.5599]]],[[[73.0256,6.5793],[73.0304,6.5761],[73.0282,6.5752],[73.0256,6.5793]]],[[[73.0394,6.6229],[73.0407,6.6172],[73.0384,6.6181],[73.0394,6.6229]]],[[[73.0618,6.661],[73.0623,6.6669],[73.0695,6.668],[73.0618,6.661]]],[[[73.0993,6.7089],[73.1004,6.6998],[73.0959,6.6984],[73.0993,6.7089]]],[[[73.032,6.7566],[73.0369,6.7535],[73.0347,6.7526],[73.032,6.7566]]],[[[72.9133,6.7649],[72.9143,6.7592],[72.9123,6.7602],[72.9133,6.7649]]],[[[73.1595,6.7865],[73.1528,6.7492],[73.1317,6.725],[73.1595,6.7865]]],[[[73.1973,6.8281],[73.1838,6.8212],[73.1808,6.8234],[73.1817,6.8305],[73.1973,6.8281]]],[[[72.9902,6.8424],[72.9915,6.8367],[72.9894,6.8376],[72.9902,6.8424]]],[[[73.139,6.8444],[73.1403,6.8387],[73.138,6.8397],[73.139,6.8444]]],[[[72.9715,6.8498],[72.9763,6.8467],[72.9741,6.8459],[72.9715,6.8498]]],[[[73.0929,6.8531],[73.094,6.8476],[73.0918,6.8483],[73.0929,6.8531]]],[[[72.9592,6.8616],[72.9606,6.856],[72.9583,6.857],[72.9592,6.8616]]],[[[73.1017,6.8935],[73.1066,6.8904],[73.1043,6.8896],[73.1017,6.8935]]],[[[73.2092,6.9183],[73.2088,6.8911],[73.2039,6.885],[73.2092,6.9183]]],[[[72.926,6.9574],[72.9263,6.9538],[72.9246,6.9517],[72.926,6.9574]]],[[[73.1947,6.9512],[73.1919,6.9676],[73.1985,6.9713],[73.1947,6.9512]]],[[[72.8919,6.9877],[72.8905,6.9854],[72.8919,6.991],[72.8919,6.9877]]],[[[72.9797,7.0275],[72.9815,7.014],[72.9773,7.019],[72.9797,7.0275]]],[[[72.95,7.0564],[72.9485,7.0508],[72.9478,7.0539],[72.95,7.0564]]],[[[72.9129,7.0926],[72.9119,7.0832],[72.9066,7.091],[72.9129,7.0926]]],[[[72.8838,7.1072],[72.8845,7.1037],[72.8825,7.1016],[72.8838,7.1072]]],[[[97.8496,9.4421],[97.8718,9.473],[97.8994,9.4611],[97.8948,9.4387],[97.8699,9.4407],[97.87,9.4252],[97.8496,9.4421]]]]}},{"type":"Feature","properties":{"scalerank":5},"geometry":{"type":"MultiPolygon","coordinates":[[[[99.0657,7.6151],[99.1174,7.4792],[99.0999,7.4672],[99.0571,7.5041],[99.0281,7.5717],[99.0207,7.6369],[99.0349,7.6443],[99.0657,7.6151]]],[[[98.5285,8.1235],[98.6024,8.0635],[98.6035,7.9038],[98.5773,7.9196],[98.5632,7.9863],[98.5823,8.0154],[98.5511,8.0425],[98.5285,8.1235]]],[[[73.0483,8.2676],[73.084,8.3085],[73.0567,8.26],[73.0241,8.2554],[73.0225,8.2744],[73.0293,8.26],[73.0483,8.2676]]],[[[93.104,8.2756],[93.1763,8.2129],[93.1673,8.2045],[93.1025,8.2215],[93.0816,8.2424],[93.0596,8.2914],[93.0698,8.3466],[93.0951,8.3552],[93.104,8.2756]]],[[[79.703,9.08],[79.7012,9.0992],[79.7588,9.1036],[79.8416,9.0772],[79.9164,9.021],[79.8543,9.0415],[79.9097,8.9732],[79.8858,8.9762],[79.7998,9.049],[79.703,9.08]]],[[[98.3079,9.133],[98.3228,9.098],[98.3093,9.049],[98.2542,9.0368],[98.2405,9.049],[98.2482,9.1501],[98.2733,9.16],[98.3079,9.133]]],[[[92.8338,9.2024],[92.832,9.145],[92.7996,9.1102],[92.7312,9.1308],[92.7202,9.1471],[92.7085,9.2016],[92.7451,9.2291],[92.751,9.2612],[92.7727,9.2592],[92.8338,9.2024]]],[[[79.8958,9.6175],[79.8407,9.6994],[79.8605,9.7563],[79.8823,9.7609],[79.8941,9.7574],[79.8947,9.6882],[79.9264,9.6789],[79.9336,9.6547],[79.9779,9.6243],[79.8958,9.6175]]],[[[100.0672,9.7756],[100.0793,9.7424],[100.0901,9.6653],[99.9876,9.7199],[99.9899,9.7429],[99.9706,9.7646],[99.9876,9.8018],[100.0672,9.7756]]],[[[98.5188,10.9711],[98.508,10.9464],[98.4771,10.9737],[98.5142,11.0358],[98.5247,11.0867],[98.5446,11.0312],[98.5415,10.9538],[98.5188,10.9711]]],[[[92.6797,11.4294],[92.6999,11.3844],[92.646,11.3591],[92.5935,11.3784],[92.6008,11.4063],[92.6372,11.4302],[92.6356,11.508],[92.6751,11.4904],[92.6963,11.4544],[92.6797,11.4294]]],[[[98.0823,11.7347],[98.0617,11.6732],[98.0896,11.6323],[98.0117,11.7047],[98.0283,11.7172],[98.0225,11.7558],[98.0071,11.7619],[97.9998,11.8418],[98.0139,11.865],[98.0139,11.8166],[98.0523,11.776],[98.058,11.7291],[98.0823,11.7347]]],[[[93.0147,12.0372],[93.0664,11.8991],[93.0493,11.8961],[93.0249,11.9401],[92.947,11.9897],[92.9807,12.0363],[93.0147,12.0372]]],[[[92.7375,12.9617],[92.7244,12.8724],[92.6828,12.7973],[92.6703,12.8677],[92.6828,12.9617],[92.7083,12.9887],[92.7375,12.9617]]],[[[94.8233,15.9458],[94.8416,15.8774],[94.8037,15.7966],[94.7249,15.812],[94.8233,15.9458]]],[[[91.8845,21.8503],[91.8411,21.7354],[91.8325,21.7258],[91.8325,21.8767],[91.8672,21.932],[91.8845,21.8503]]],[[[90.6416,22.9523],[90.6673,22.9182],[90.6271,22.925],[90.5887,22.9621],[90.5241,22.953],[90.5081,22.9758],[90.528,23.0076],[90.5862,23.0349],[90.6673,22.9592],[90.6416,22.9523]]],[[[72.7704,11.2036],[72.7956,11.2572],[72.7754,11.1866],[72.7704,11.2036]]],[[[73.5529,4.2368],[73.5382,4.1833],[73.5109,4.1621],[73.4312,4.1846],[73.512,4.1863],[73.5333,4.231],[73.5529,4.2368]]]]}},{"type":"Feature","properties":{"scalerank":3},"geometry":{"type":"MultiPolygon","coordinates":[[[[93.9287,7.0124],[93.9299,6.9591],[93.8936,6.8768],[93.9031,6.8083],[93.8594,6.8043],[93.8342,6.7456],[93.8127,6.754],[93.8137,6.8083],[93.7844,6.8364],[93.7932,6.8492],[93.7757,6.8674],[93.7653,6.9243],[93.7481,6.9236],[93.7036,7.0063],[93.6646,7.0265],[93.6492,7.0131],[93.6497,7.1196],[93.6764,7.1819],[93.7173,7.1877],[93.814,7.2418],[93.8308,7.2359],[93.865,7.2007],[93.8871,7.0893],[93.9287,7.0124]]],[[[92.5651,10.8493],[92.5959,10.6784],[92.5398,10.6207],[92.5418,10.5917],[92.5742,10.5806],[92.5354,10.5249],[92.513,10.508],[92.4218,10.5462],[92.3841,10.5293],[92.417,10.6291],[92.3795,10.6721],[92.3767,10.784],[92.4154,10.7989],[92.429,10.8508],[92.5276,10.8955],[92.5651,10.8493]]],[[[93.0757,13.2691],[93.0569,13.2248],[93.0368,13.0622],[93.0195,13.0336],[92.9906,13.0437],[92.9793,13.0295],[92.964,13.0369],[92.964,13.0847],[92.9566,13.0642],[92.937,13.0671],[92.9284,13.0275],[92.9526,12.9708],[92.936,12.9543],[92.9274,12.981],[92.9053,12.9822],[92.8763,12.9167],[92.8963,12.8997],[92.9245,12.9144],[92.964,12.8649],[92.9566,12.783],[92.9905,12.7243],[92.9729,12.6281],[92.989,12.5921],[92.9906,12.5192],[92.9559,12.4774],[92.9702,12.4683],[92.936,12.4199],[92.895,12.4547],[92.9019,12.4335],[92.8467,12.4335],[92.8636,12.3855],[92.915,12.3384],[92.8792,12.313],[92.9002,12.2832],[92.8799,12.2436],[92.8942,12.205],[92.8726,12.2015],[92.8745,12.1837],[92.8274,12.1401],[92.8337,12.1182],[92.7575,12.0775],[92.7927,12.0363],[92.7637,12.031],[92.7406,11.9836],[92.7375,11.8786],[92.762,11.9401],[92.7879,11.9345],[92.7995,11.8991],[92.76,11.7087],[92.7229,11.6938],[92.6839,11.6499],[92.6828,11.6152],[92.6968,11.6112],[92.7107,11.6217],[92.7107,11.6596],[92.7312,11.6527],[92.736,11.6824],[92.7615,11.6636],[92.7654,11.6186],[92.717,11.4945],[92.6257,11.5954],[92.6213,11.6186],[92.6487,11.6385],[92.6196,11.6513],[92.6038,11.7189],[92.5632,11.7256],[92.5667,11.8271],[92.5249,11.8575],[92.5706,11.9326],[92.5947,11.8987],[92.6145,11.8991],[92.6177,11.8664],[92.6401,12.1361],[92.6818,12.2196],[92.6971,12.2077],[92.721,12.2265],[92.7278,12.1728],[92.784,12.1894],[92.7927,12.2077],[92.7824,12.2486],[92.7586,12.2659],[92.7942,12.2832],[92.7927,12.2964],[92.7337,12.3181],[92.7178,12.3625],[92.7217,12.5994],[92.7547,12.6496],[92.7832,12.665],[92.7477,12.6927],[92.7375,12.8072],[92.7654,12.8451],[92.7857,12.84],[92.8003,12.8578],[92.8132,12.9581],[92.8347,13.002],[92.808,13.0201],[92.8542,13.1461],[92.8337,13.174],[92.8428,13.227],[92.864,13.2355],[92.8474,13.3449],[92.8914,13.4009],[92.895,13.4546],[92.9429,13.5092],[92.9497,13.5446],[93.0117,13.5508],[93.0117,13.5781],[93.05,13.5664],[93.0664,13.5371],[93.0537,13.4714],[93.0596,13.4068],[93.0801,13.413],[93.0784,13.3971],[93.0042,13.331],[93.0037,13.3486],[92.9844,13.3564],[92.9793,13.3298],[93.0046,13.3118],[93.0256,13.3161],[93.0757,13.2691]]]]}},{"type":"Feature","properties":{"scalerank":0},"geometry":{"type":"Polygon","coordinates":[[[81.8807,7.3271],[81.8846,6.9802],[81.8316,6.7654],[81.7798,6.6636],[81.7756,6.6104],[81.6815,6.4621],[81.325,6.2054],[81.2044,6.1627],[81.1877,6.1816],[81.1764,6.1504],[81.1126,6.1203],[80.9027,6.0708],[80.8623,6.0399],[80.8091,6.0351],[80.7144,5.9579],[80.6563,5.9579],[80.5908,5.9237],[80.5396,5.9443],[80.4652,5.9407],[80.444,5.9709],[80.412,5.9599],[80.3584,5.9784],[80.341,5.9709],[80.2039,6.0262],[80.094,6.1361],[80.032,6.2663],[80.0121,6.3613],[79.9642,6.4719],[79.9779,6.4787],[79.9696,6.5353],[79.863,6.8072],[79.8482,6.8902],[79.8616,7.0119],[79.8137,7.1807],[79.8203,7.2055],[79.8482,7.123],[79.8616,7.1674],[79.8263,7.2104],[79.8338,7.2328],[79.7786,7.6027],[79.793,7.6027],[79.802,7.6593],[79.6968,8.0983],[79.7072,8.1421],[79.6968,8.2191],[79.7288,8.2497],[79.7786,8.35],[79.7445,8.2812],[79.7786,8.26],[79.7461,8.2061],[79.7275,8.1109],[79.7295,8.0811],[79.752,8.0546],[79.7319,8.0131],[79.7638,7.9901],[79.8102,7.9865],[79.8338,8.0031],[79.7935,8.0728],[79.8272,8.1365],[79.8067,8.2402],[79.8272,8.2777],[79.8738,8.5381],[79.9165,8.576],[79.9417,8.6425],[79.9505,8.7398],[79.9264,8.8019],[79.9302,8.8844],[79.9155,8.9385],[80.048,9.0263],[80.1056,9.1929],[80.1182,9.3004],[80.0662,9.3326],[80.053,9.3915],[80.197,9.4735],[80.1613,9.5206],[80.053,9.5964],[80.2334,9.5342],[80.2722,9.5041],[80.2659,9.4667],[80.2869,9.4527],[80.4266,9.5002],[80.6148,9.4462],[80.4714,9.5281],[80.429,9.5178],[80.3687,9.5302],[80.2975,9.5913],[80.186,9.6485],[80.1736,9.6487],[80.176,9.6243],[80.2,9.5992],[80.186,9.5841],[80.1155,9.6357],[80.094,9.6448],[80.1356,9.6038],[79.958,9.6857],[79.9097,9.7683],[79.9707,9.8151],[80.1223,9.8189],[80.1301,9.7773],[80.2223,9.7545],[80.3386,9.6292],[80.444,9.5759],[80.3198,9.6728],[80.2478,9.7551],[80.1387,9.7987],[80.1367,9.8139],[80.1577,9.8229],[80.2468,9.8259],[80.4099,9.6175],[80.7444,9.3597],[80.7988,9.2949],[80.7365,9.309],[80.7936,9.2506],[80.8139,9.2395],[80.8036,9.2716],[80.8239,9.2705],[80.8822,9.1452],[80.8401,9.156],[80.8345,9.1418],[80.8731,9.1265],[80.8753,9.1036],[80.8965,9.1166],[80.9164,9.0622],[80.9583,9.0179],[80.9443,9.0006],[80.9307,9.021],[80.8753,9.0415],[80.9351,8.9649],[80.9149,8.9439],[80.9476,8.9329],[80.9785,8.98],[81.0467,8.8821],[81.0928,8.8516],[81.1143,8.8],[81.1502,8.7772],[81.1765,8.6989],[81.1823,8.7122],[81.1975,8.7057],[81.2317,8.6511],[81.2044,8.6101],[81.2249,8.6168],[81.2498,8.5458],[81.2249,8.5418],[81.23,8.5579],[81.2122,8.5727],[81.2106,8.5071],[81.159,8.5346],[81.134,8.5013],[81.1703,8.5207],[81.2131,8.4724],[81.2811,8.467],[81.2966,8.4768],[81.2864,8.5002],[81.3342,8.5146],[81.3657,8.4822],[81.3894,8.3637],[81.3518,8.4047],[81.3566,8.3625],[81.3993,8.3393],[81.4485,8.128],[81.4303,8.103],[81.4036,8.1918],[81.3963,8.1365],[81.4356,8.0932],[81.4644,8.116],[81.5197,7.9993],[81.5339,8.0136],[81.5402,7.9863],[81.5607,7.9993],[81.5607,7.9584],[81.5955,7.9174],[81.5759,7.8894],[81.5876,7.8553],[81.6082,7.8317],[81.6364,7.8355],[81.7131,7.7118],[81.6909,7.7051],[81.6266,7.7602],[81.5955,7.7263],[81.659,7.7233],[81.7115,7.6505],[81.7116,7.6225],[81.714,7.6437],[81.749,7.6225],[81.773,7.568],[81.773,7.5239],[81.7576,7.5054],[81.7798,7.4724],[81.771,7.457],[81.7933,7.4656],[81.8078,7.4103],[81.826,7.4742],[81.8557,7.4122],[81.8807,7.3271]]]}},{"type":"Feature","properties":{"scalerank":null},"geometry":{"type":"MultiPolygon","coordinates":[[[[100.5807,4.1981],[100.5433,4.2265],[100.5363,4.2694],[100.5693,4.2519],[100.5807,4.1981]]],[[[99.3218,6.5565],[99.3229,6.5248],[99.2969,6.5084],[99.2742,6.5656],[99.2897,6.5729],[99.3218,6.5565]]],[[[99.8452,6.7284],[99.8675,6.71],[99.8421,6.7118],[99.8452,6.7284]]],[[[99.608,7.0956],[99.6111,7.0795],[99.5743,7.0907],[99.5578,7.1189],[99.608,7.0956]]],[[[98.3791,7.6151],[98.3723,7.5939],[98.3591,7.5858],[98.3609,7.6055],[98.3791,7.6151]]],[[[98.9961,7.8351],[98.9863,7.7841],[98.9373,7.8421],[98.9515,7.8549],[98.9961,7.8351]]],[[[93.2411,8.2629],[93.2508,8.2454],[93.2494,8.218],[93.2227,8.2517],[93.2411,8.2629]]],[[[93.0619,8.456],[93.079,8.45],[93.0789,8.4286],[93.0623,8.4377],[93.0619,8.456]]],[[[97.6421,8.6625],[97.6477,8.6148],[97.6288,8.6542],[97.6421,8.6625]]],[[[79.9109,8.953],[79.9159,8.9468],[79.9072,8.9357],[79.9109,8.953]]],[[[79.6436,9.0749],[79.6647,9.0702],[79.6312,9.0671],[79.6436,9.0749]]],[[[79.5514,9.0931],[79.5542,9.0854],[79.5533,9.0845],[79.5514,9.0931]]],[[[79.0638,9.2049],[79.0881,9.1943],[79.0586,9.2006],[79.0638,9.2049]]],[[[98.2698,9.1683],[98.266,9.1966],[98.3145,9.2576],[98.2974,9.1973],[98.2698,9.1683]]],[[[79.99,9.2997],[79.9913,9.2883],[79.9801,9.2777],[79.9716,9.2929],[79.99,9.2997]]],[[[79.8495,9.6129],[79.8635,9.5918],[79.8577,9.566],[79.8158,9.5712],[79.8145,9.6228],[79.834,9.5932],[79.8495,9.6129]]],[[[97.9605,9.6384],[97.9784,9.6136],[97.9684,9.5978],[97.9557,9.6291],[97.9605,9.6384]]],[[[98.4745,9.8583],[98.4694,9.8192],[98.4569,9.7871],[98.4369,9.8022],[98.4401,9.8546],[98.452,9.8701],[98.4745,9.8583]]],[[[99.8439,10.0666],[99.8218,10.0648],[99.826,10.1241],[99.8429,10.1249],[99.8569,10.0998],[99.8439,10.0666]]],[[[97.9771,10.1752],[97.9808,10.136],[97.9725,10.1444],[97.9604,10.126],[97.9771,10.1752]]],[[[98.0295,10.5681],[97.9996,10.5377],[97.9414,10.5603],[97.9753,10.5745],[98.0019,10.565],[98.0151,10.5901],[98.0295,10.5681]]],[[[98.3087,11.0386],[98.3189,11.0074],[98.2969,11.0211],[98.3087,11.0386]]],[[[98.5504,11.3033],[98.549,11.2622],[98.5288,11.325],[98.5504,11.3033]]],[[[98.1441,11.4241],[98.1484,11.3743],[98.1008,11.4118],[98.1441,11.4241]]],[[[92.5426,11.6015],[92.5719,11.5711],[92.5387,11.5523],[92.5426,11.6015]]],[[[97.5308,11.7897],[97.4945,11.7854],[97.4797,11.8118],[97.5247,11.8097],[97.5308,11.7897]]],[[[97.7143,12.1383],[97.7449,12.1302],[97.73,12.1037],[97.7143,12.1383]]],[[[93.0255,12.1411],[93.0534,12.0469],[93.0156,12.0825],[93.0136,12.1449],[93.0322,12.1618],[93.0255,12.1411]]],[[[98.3955,12.1782],[98.3984,12.1374],[98.3884,12.1386],[98.3809,12.1605],[98.3955,12.1782]]],[[[98.479,12.3902],[98.4902,12.3542],[98.443,12.3347],[98.4383,12.3511],[98.4631,12.3888],[98.479,12.3902]]],[[[100.8043,12.7166],[100.8076,12.6938],[100.7808,12.6686],[100.7675,12.7099],[100.8043,12.7166]]],[[[98.3622,12.7047],[98.3464,12.7132],[98.3319,12.7682],[98.3392,12.7686],[98.3622,12.7047]]],[[[93.0137,12.9857],[92.9872,12.9247],[92.965,12.9351],[92.9789,12.9486],[92.9627,12.9766],[92.9731,12.9863],[92.985,12.9671],[92.9951,12.9894],[93.0137,12.9857]]],[[[92.6975,13.0957],[92.733,13.0915],[92.7181,13.0611],[92.6975,13.0957]]],[[[98.5265,13.1916],[98.4994,13.1679],[98.4907,13.2263],[98.5159,13.2307],[98.5265,13.1916]]],[[[93.2383,13.9692],[93.2305,13.9943],[93.2364,14.0121],[93.2383,13.9692]]],[[[97.8156,14.1893],[97.8111,14.1549],[97.7891,14.135],[97.7791,14.1553],[97.7925,14.182],[97.8156,14.1893]]],[[[97.786,14.4146],[97.7673,14.4014],[97.7737,14.4155],[97.786,14.4146]]],[[[95.0525,15.7507],[95.0658,15.7364],[95.059,15.7195],[95.0263,15.7143],[95.0221,15.7277],[95.0525,15.7507]]]]}}]}